LTM_project_short_code,Monitoring_Group,Area,MPA_names,CA_MPA_name_short,Grid_Cell_ID,Area_Code,MPA_Status,lat_center_point_dd,lon_center_point_dd,coordinate_uncertainty_m,lat_1_dd,lon_1_dd,lat_2_dd,lon_2_dd,lat_3_dd,lon_3_dd,lat_4_dd,lon_4_dd
LTM_CCFRP,UCSB,Anacapa Island,Anacapa Island State Marine Reserve,Anacapa Island SMR,AI01,AI,MPA,34.02153397,-119.3667972,354,34.01889801,-119.368942,34.02331924,-119.3699633,34.02416992,-119.3646522,34.01974487,-119.3636313
LTM_CCFRP,UCSB,Anacapa Island,Anacapa Island State Marine Reserve,Anacapa Island SMR,AI02,AI,MPA,34.01849365,-119.371586,354,34.02058029,-119.37477,34.02114868,-119.369468,34.01673126,-119.368402,34.01584244,-119.373703
LTM_CCFRP,UCSB,Anacapa Island,Anacapa Island State Marine Reserve,Anacapa Island SMR,AI03,AI,MPA,34.01770782,-119.3795367,354,34.01894379,-119.3830604,34.02064133,-119.378051,34.01647186,-119.3760131,34.01477432,-119.3810222
LTM_CCFRP,UCSB,Anacapa Island,Anacapa Island State Marine Reserve,Anacapa Island SMR,AI04,AI,MPA,34.01169968,-119.392358,354,34.00950241,-119.39512,34.01409912,-119.39502,34.01392365,-119.38961,34.0094223,-119.38971
LTM_CCFRP,UCSB,Anacapa Island,Anacapa Island State Marine Reserve,Anacapa Island SMR,AI05,AI,MPA,34.01620102,-119.3849281,354,34.01749802,-119.3884215,34.01911163,-119.3833727,34.01490784,-119.3814347,34.01329422,-119.3864833
LTM_CCFRP,UCSB,Anacapa Island,Anacapa Island State Marine Reserve,Anacapa Island SMR,AI06,AI,MPA,34.01903152,-119.359852,354,34.01710129,-119.362891,34.02156448,-119.3621725,34.02096558,-119.3568123,34.01650238,-119.3575311
LTM_CCFRP,UCSB,Anacapa Island,Anacapa Island State Marine Conservation Area,Anacapa Island SMCA,AI07,AI,MPA,34.01938248,-119.4407557,354,34.0172081,-119.4435522,34.02170944,-119.4433642,34.02155304,-119.437959,34.0170517,-119.4381472
LTM_CCFRP,UCSB,Anacapa Island,Anacapa Island State Marine Conservation Area,Anacapa Island SMCA,AI08,AI,MPA,34.0183754,-119.4347202,354,34.02018356,-119.4378686,34.02099991,-119.4325492,34.01657104,-119.431572,34.0157547,-119.4368911
LTM_CCFRP,UCSB,Anacapa Island,Anacapa Island State Marine Conservation Area,Anacapa Island SMCA,AI09,AI,MPA,34.01815414,-119.4274239,354,34.0200882,-119.4304618,34.02068329,-119.4251009,34.01622009,-119.4243862,34.015625,-119.4297469
LTM_CCFRP,UCSB,Anacapa Island,,,AI10,AI,REF,34.02030945,-119.353567,354,34.02250671,-119.3507985,34.01800537,-119.3509292,34.018116,-119.3563355,34.02261734,-119.3562051
LTM_CCFRP,UCSB,Anacapa Island,,,AI11,AI,REF,34.01314926,-119.3517015,354,34.01246262,-119.3479672,34.01004028,-119.3525235,34.01383209,-119.3554359,34.01625824,-119.3508795
LTM_CCFRP,UCSB,Anacapa Island,,,AI12,AI,REF,34.01034927,-119.3566643,354,34.00730896,-119.357807,34.01129913,-119.3603132,34.01338577,-119.3555214,34.0093956,-119.3530154
LTM_CCFRP,UCSB,Anacapa Island,,,AI13,AI,REF,33.99995422,-119.4065044,354,34.0029068,-119.4079268,34.00113678,-119.4029555,33.99699783,-119.4050822,33.99876785,-119.4100533
LTM_CCFRP,UCSB,Anacapa Island,,,AI14,AI,REF,34.00103378,-119.4155366,354,34.00308609,-119.4184604,34.00347137,-119.4130728,33.99898148,-119.412613,33.99860001,-119.4180004
LTM_CCFRP,UCSB,Anacapa Island,,,AI15,AI,REF,34.00556946,-119.4390588,354,34.00242233,-119.4396457,34.00605774,-119.4428372,34.00871277,-119.4384718,34.00507736,-119.4352805
LTM_CCFRP,UCSB,Anacapa Island,,,AI16,AI,REF,34.00822449,-119.3711319,354,34.00962448,-119.3745662,34.01108551,-119.3694509,34.00682449,-119.3676978,34.00536346,-119.3728129
LTM_CCFRP,UCSB,Anacapa Island,,,AI17,AI,REF,34.00200272,-119.3849105,354,34.00271988,-119.3886359,34.00510788,-119.3840506,34.00128937,-119.3811852,33.99890137,-119.3857703
LTM_CCFRP,UCSB,Anacapa Island,,,AIMM,AI,MPA,,,,,,,,,,,
LTM_CCFRP,UCSB,Anacapa Island,,,AIRR,AI,REF,,,,,,,,,,,
LTM_CCFRP,MLML,Ano Nuevo,,,AN01,AN,REF,37.24250031,-122.42725,354,37.24474716,-122.4300166,37.24474716,-122.4244834,37.24025345,-122.4300166,37.24025345,-122.4244834
LTM_CCFRP,MLML,Ano Nuevo,,,AN02,AN,REF,37.23733521,-122.4265,354,37.23958206,-122.4292666,37.23958206,-122.4237334,37.23508453,-122.4292666,37.23508453,-122.4237334
LTM_CCFRP,MLML,Ano Nuevo,,,AN03,AN,REF,37.23175049,-122.4253334,354,37.23399734,-122.4281,37.23399734,-122.4225667,37.22950363,-122.4281,37.22950363,-122.4225667
LTM_CCFRP,MLML,Ano Nuevo,,,AN04,AN,REF,37.22525024,-122.4224167,354,37.2274971,-122.4251833,37.2274971,-122.4196501,37.22300339,-122.4251833,37.22300339,-122.4196501
LTM_CCFRP,MLML,Ano Nuevo,,,AN05,AN,REF,37.21625137,-122.4176667,354,37.21849823,-122.4204333,37.21849823,-122.4149,37.21400452,-122.4204333,37.21400452,-122.4149
LTM_CCFRP,MLML,Ano Nuevo,,,AN06,AN,REF,37.19691849,-122.413,354,37.19916534,-122.4157666,37.19916534,-122.4102334,37.19466782,-122.4157666,37.19466782,-122.4102334
LTM_CCFRP,MLML,Ano Nuevo,,,AN07,AN,REF,37.19166565,-122.4105,354,37.19391251,-122.4132666,37.19391251,-122.4077334,37.18941879,-122.4132666,37.18941879,-122.4077334
LTM_CCFRP,MLML,Ano Nuevo,,,AN08,AN,REF,37.18500137,-122.40475,354,37.18724823,-122.4075166,37.18724823,-122.4019834,37.18275452,-122.4075166,37.18275452,-122.4019834
LTM_CCFRP,MLML,Ano Nuevo,,,AN09,AN,REF,37.16991806,-122.3816667,354,37.17216492,-122.3844333,37.17216492,-122.3789,37.1676712,-122.3844333,37.1676712,-122.3789
LTM_CCFRP,MLML,Ano Nuevo,,,AN10,AN,REF,37.16474915,-122.3811667,354,37.166996,-122.3839333,37.166996,-122.3784,37.16250229,-122.3839333,37.16250229,-122.3784
LTM_CCFRP,MLML,Ano Nuevo,,,AN11,AN,REF,37.16691589,-122.3745,354,37.16916275,-122.3772666,37.16916275,-122.3717334,37.16466904,-122.3772666,37.16466904,-122.3717334
LTM_CCFRP,MLML,Ano Nuevo,Ano Nuevo State Marine Reserve,Ano Nuevo SMR,AN12,AN,MPA,37.11674881,-122.34725,354,37.11899567,-122.3500166,37.11899567,-122.3444834,37.11450195,-122.3500166,37.11450195,-122.3444834
LTM_CCFRP,MLML,Ano Nuevo,Ano Nuevo State Marine Reserve,Ano Nuevo SMR,AN13,AN,MPA,37.11166763,-122.3463334,354,37.11391449,-122.3491,37.11391449,-122.3435667,37.10942078,-122.3491,37.10942078,-122.3435667
LTM_CCFRP,MLML,Ano Nuevo,Ano Nuevo State Marine Reserve,Ano Nuevo SMR,AN14,AN,MPA,37.10691833,-122.3463334,354,37.10916519,-122.3491,37.10916519,-122.3435667,37.10466766,-122.3491,37.10466766,-122.3435667
LTM_CCFRP,MLML,Ano Nuevo,Ano Nuevo State Marine Reserve,Ano Nuevo SMR,AN15,AN,MPA,37.10094833,-122.3463334,354,37.10319519,-122.3491,37.10319519,-122.3435667,37.09870148,-122.3491,37.09870148,-122.3435667
LTM_CCFRP,MLML,Ano Nuevo,Ano Nuevo State Marine Reserve,Ano Nuevo SMR,AN16,AN,MPA,37.09908295,-122.3404167,354,37.1013298,-122.3431833,37.1013298,-122.3376501,37.09683609,-122.3431833,37.09683609,-122.3376501
LTM_CCFRP,MLML,Ano Nuevo,Ano Nuevo State Marine Reserve,Ano Nuevo SMR,AN17,AN,MPA,37.09791565,-122.3345833,354,37.10016251,-122.3373499,37.10016251,-122.3318167,37.09566879,-122.3373499,37.09566879,-122.3318167
LTM_CCFRP,MLML,Ano Nuevo,Ano Nuevo State Marine Reserve,Ano Nuevo SMR,AN18,AN,MPA,37.09799957,-122.3283334,354,37.10024643,-122.3311,37.10024643,-122.3255667,37.09575272,-122.3311,37.09575272,-122.3255667
LTM_CCFRP,MLML,Ano Nuevo,Ano Nuevo State Marine Reserve,Ano Nuevo SMR,AN19,AN,MPA,37.09233475,-122.3285833,354,37.0945816,-122.3313499,37.0945816,-122.3258167,37.09008789,-122.3313499,37.09008789,-122.3258167
LTM_CCFRP,MLML,Ano Nuevo,Ano Nuevo State Marine Reserve,Ano Nuevo SMR,AN20,AN,MPA,37.08750153,-122.3285833,354,37.08974838,-122.3313499,37.08974838,-122.3258167,37.08525467,-122.3313499,37.08525467,-122.3258167
LTM_CCFRP,MLML,Ano Nuevo,Ano Nuevo State Marine Reserve,Ano Nuevo SMR,AN21,AN,MPA,37.09075165,-122.322,354,37.0929985,-122.3247666,37.0929985,-122.3192334,37.08850098,-122.3247666,37.08850098,-122.3192334
LTM_CCFRP,MLML,Ano Nuevo,Ano Nuevo State Marine Reserve,Ano Nuevo SMR,AN22,AN,MPA,37.09570313,-122.3166667,354,37.09794998,-122.3194333,37.09794998,-122.3139,37.09345627,-122.3194333,37.09345627,-122.3139
LTM_CCFRP,MLML,Ano Nuevo,Ano Nuevo State Marine Reserve,Ano Nuevo SMR,ANMM,AN,MPA,,,,,,,,,,,
LTM_CCFRP,MLML,Ano Nuevo,,,ANRR,AN,REF,,,,,,,,,,,
LTM_CCFRP,BML,Bodega Head,,,BH01,BH,REF,38.35417938,-123.095455,354,38.3519249,-123.0983087,38.35639572,-123.098355,38.35643387,-123.0926015,38.35195923,-123.0925555
LTM_CCFRP,BML,Bodega Head,,,BH02,BH,REF,38.3493042,-123.1029207,354,38.35155106,-123.105785,38.35155869,-123.1000627,38.34705353,-123.1000565,38.3470459,-123.1057785
LTM_CCFRP,BML,Bodega Head,,,BH03,BH,REF,38.34793472,-123.0941,354,38.35018539,-123.096964,38.35018921,-123.0912418,38.34568405,-123.0912361,38.34568024,-123.096958
LTM_CCFRP,BML,Bodega Head,,,BH04,BH,REF,38.34590149,-123.0873542,354,38.34815216,-123.090218,38.34815598,-123.0844959,38.34365082,-123.0844906,38.34364319,-123.0902124
LTM_CCFRP,BML,Bodega Head,,,BH05,BH,REF,38.34278488,-123.1002721,354,38.34503555,-123.1031362,38.34503937,-123.0974143,38.34053421,-123.0974083,38.34052658,-123.1031298
LTM_CCFRP,BML,Bodega Head,,,BH06,BH,REF,38.33911514,-123.0928,354,38.34136581,-123.0956636,38.34136963,-123.0899421,38.33686447,-123.0899365,38.33686066,-123.0956577
LTM_CCFRP,BML,Bodega Head,,,BH07,BH,REF,38.33876801,-123.0844697,354,38.34101868,-123.087333,38.34102249,-123.0816115,38.33651733,-123.0816065,38.33651352,-123.0873276
LTM_CCFRP,BML,Bodega Head,Bodega Head State Marine Reserve,Bodega Head SMR,BH08,BH,MPA,38.32689667,-123.0902853,354,38.32914734,-123.0931484,38.32915115,-123.0874278,38.324646,-123.0874224,38.32464218,-123.0931426
LTM_CCFRP,BML,Bodega Head,Bodega Head State Marine Reserve,Bodega Head SMR,BH09,BH,MPA,38.32705688,-123.0827336,354,38.32930756,-123.0855965,38.32931137,-123.0798758,38.32480621,-123.0798709,38.32479858,-123.0855912
LTM_CCFRP,BML,Bodega Head,Bodega Head State Marine Reserve,Bodega Head SMR,BH10,BH,MPA,38.32143784,-123.0898176,354,38.32368851,-123.0926805,38.32369232,-123.0869603,38.31918716,-123.086955,38.31917953,-123.0926748
LTM_CCFRP,BML,Bodega Head,Bodega Head State Marine Reserve,Bodega Head SMR,BH11,BH,MPA,38.32135391,-123.0831391,354,38.32360458,-123.0860017,38.3236084,-123.0802816,38.31910324,-123.0802766,38.31909943,-123.0859964
LTM_CCFRP,BML,Bodega Head,Bodega Head State Marine Reserve,Bodega Head SMR,BH12,BH,MPA,38.31618881,-123.0947072,354,38.31843948,-123.09757,38.3184433,-123.0918502,38.31393814,-123.0918445,38.31393433,-123.0975639
LTM_CCFRP,BML,Bodega Head,Bodega Head State Marine Reserve,Bodega Head SMR,BH13,BH,MPA,38.31618118,-123.0875266,354,38.31843185,-123.0903892,38.31843567,-123.0846694,38.31393051,-123.0846642,38.3139267,-123.0903836
LTM_CCFRP,BML,Bodega Head,Bodega Head State Marine Reserve,Bodega Head SMR,BH14,BH,MPA,38.31645966,-123.0783025,354,38.31693649,-123.082301,38.3196106,-123.0776949,38.315979,-123.074304,38.31330872,-123.07891
LTM_CCFRP,BML,Bodega Head,Bodega Head State Marine Reserve,Bodega Head SMR,BH15,BH,MPA,38.31079102,-123.0909736,354,38.31304169,-123.0938361,38.3130455,-123.0881168,38.30854034,-123.0881113,38.30853653,-123.0938303
LTM_CCFRP,BML,Bodega Head,Bodega Head State Marine Reserve,Bodega Head SMR,BH16,BH,MPA,38.31076813,-123.0839132,354,38.3130188,-123.0867755,38.31302261,-123.0810562,38.30851746,-123.0810512,38.30851364,-123.0867701
LTM_CCFRP,BML,Bodega Head,Bodega Head State Marine Reserve,Bodega Head SMR,BH17,BH,MPA,38.31108475,-123.075082,354,38.31206894,-123.078928,38.31411362,-123.0738316,38.31009674,-123.0712361,38.30805206,-123.0763323
LTM_CCFRP,BML,Bodega Head,Bodega Head State Marine Reserve,Bodega Head SMR,BH18,BH,MPA,38.30452347,-123.0861829,354,38.30677414,-123.089045,38.30677795,-123.0833261,38.3022728,-123.083321,38.30226898,-123.0890394
LTM_CCFRP,BML,Bodega Head,Bodega Head State Marine Reserve,Bodega Head SMR,BH19,BH,MPA,38.30449295,-123.079311,354,38.30675888,-123.0821554,38.30673599,-123.0764367,38.30222702,-123.0764668,38.30224991,-123.0821852
LTM_CCFRP,BML,Bodega Head,Bodega Head State Marine Reserve,Bodega Head SMR,BH20,BH,MPA,38.30553436,-123.0719528,354,38.30695343,-123.0755744,38.30838776,-123.0701537,38.30411911,-123.0683314,38.30268097,-123.0737518
LTM_CCFRP,BML,Bodega Head,,,BH21,BH,REF,38.29260254,-123.0516019,354,38.2923317,-123.0556302,38.29578018,-123.051947,38.2928772,-123.0475736,38.28942871,-123.0512569
LTM_CCFRP,BML,Bodega Head,,,BH22,BH,REF,38.28897858,-123.0452803,354,38.29123306,-123.0481405,38.29123306,-123.0424229,38.28672791,-123.0424202,38.28672409,-123.0481375
LTM_CCFRP,BML,Bodega Head,,,BH23,BH,REF,38.28319931,-123.0483483,354,38.2854538,-123.0512083,38.2854538,-123.0454912,38.28094864,-123.0454884,38.28094482,-123.0512052
LTM_CCFRP,BML,Bodega Head,,,BH24,BH,REF,38.27786255,-123.0484234,354,38.28011322,-123.0512833,38.28011703,-123.0455665,38.27560806,-123.0455637,38.27560806,-123.0512801
LTM_CCFRP,BML,Bodega Head,,,BH25,BH,REF,38.2848053,-123.0372646,354,38.28705597,-123.0401244,38.28705978,-123.0344071,38.28255081,-123.034405,38.28255081,-123.0401219
LTM_CCFRP,BML,Bodega Head,,,BH26,BH,REF,38.27931595,-123.0379991,354,38.28156662,-123.0408587,38.28157043,-123.0351419,38.27706528,-123.0351397,38.27706146,-123.0408562
LTM_CCFRP,BML,Bodega Head,,,BH27,BH,REF,38.27923965,-123.030773,354,38.28149033,-123.0336323,38.28149033,-123.0279155,38.27698517,-123.0279138,38.27698517,-123.0336303
LTM_CCFRP,BML,Bodega Head,Bodega Head State Marine Reserve,Bodega Head SMR,BHMM,BH,MPA,,,,,,,,,,,
LTM_CCFRP,BML,Bodega Head,,,BHRR,BH,REF,,,,,,,,,,,
LTM_CCFRP,Cal Poly,Piedras Blancas,Piedras Blancas State Marine Reserve,Piedras Blancas SMR,BL01,BL,MPA,35.70785141,-121.33225,354,35.71009827,-121.335,35.71009827,-121.3295,35.70560074,-121.335,35.70560074,-121.3295
LTM_CCFRP,Cal Poly,Piedras Blancas,Piedras Blancas State Marine Reserve,Piedras Blancas SMR,BL02,BL,MPA,35.70729828,-121.3234,354,35.70949936,-121.3262,35.70949936,-121.3206,35.70510101,-121.3262,35.70510101,-121.3206
LTM_CCFRP,Cal Poly,Piedras Blancas,Piedras Blancas State Marine Reserve,Piedras Blancas SMR,BL03,BL,MPA,35.70149994,-121.33575,354,35.70370102,-121.3385,35.70370102,-121.333,35.69929886,-121.3385,35.69929886,-121.333
LTM_CCFRP,Cal Poly,Piedras Blancas,Piedras Blancas State Marine Reserve,Piedras Blancas SMR,BL04,BL,MPA,35.69869995,-121.32955,354,35.70090103,-121.3323,35.70090103,-121.3268,35.69649887,-121.3323,35.69649887,-121.3268
LTM_CCFRP,Cal Poly,Piedras Blancas,Piedras Blancas State Marine Reserve,Piedras Blancas SMR,BL05,BL,MPA,35.70154953,-121.3235,354,35.7038002,-121.3263,35.7038002,-121.3207,35.69929886,-121.3263,35.69929886,-121.3207
LTM_CCFRP,Cal Poly,Piedras Blancas,Piedras Blancas State Marine Reserve,Piedras Blancas SMR,BL06,BL,MPA,35.70235062,-121.3169,354,35.70460129,-121.3196,35.70460129,-121.3142,35.70009995,-121.3196,35.70009995,-121.3142
LTM_CCFRP,Cal Poly,Piedras Blancas,Piedras Blancas State Marine Reserve,Piedras Blancas SMR,BL07,BL,MPA,35.69364929,-121.33085,354,35.69589996,-121.3336,35.69589996,-121.3281,35.69139862,-121.3336,35.69139862,-121.3281
LTM_CCFRP,Cal Poly,Piedras Blancas,Piedras Blancas State Marine Reserve,Piedras Blancas SMR,BL08,BL,MPA,35.69355011,-121.32455,354,35.69580078,-121.3273,35.69580078,-121.3218,35.69129944,-121.3273,35.69129944,-121.3218
LTM_CCFRP,Cal Poly,Piedras Blancas,Piedras Blancas State Marine Reserve,Piedras Blancas SMR,BL09,BL,MPA,35.69400024,-121.31855,354,35.69630051,-121.3213,35.69630051,-121.3158,35.69169998,-121.3213,35.69169998,-121.3158
LTM_CCFRP,Cal Poly,Piedras Blancas,Piedras Blancas State Marine Reserve,Piedras Blancas SMR,BL10,BL,MPA,35.69654846,-121.3124,354,35.69879913,-121.3152,35.69879913,-121.3096,35.69430161,-121.3152,35.69430161,-121.3096
LTM_CCFRP,Cal Poly,Piedras Blancas,Piedras Blancas State Marine Reserve,Piedras Blancas SMR,BL11,BL,MPA,35.69115067,-121.3117,354,35.69340134,-121.3145,35.69340134,-121.3089,35.68889999,-121.3145,35.68889999,-121.3089
LTM_CCFRP,Cal Poly,Piedras Blancas,Piedras Blancas State Marine Reserve,Piedras Blancas SMR,BL12,BL,MPA,35.6868515,-121.3254,354,35.68909836,-121.3281,35.68909836,-121.3227,35.68460083,-121.3281,35.68460083,-121.3227
LTM_CCFRP,Cal Poly,Piedras Blancas,Piedras Blancas State Marine Reserve,Piedras Blancas SMR,BL13,BL,MPA,35.68579865,-121.31715,354,35.68799973,-121.32,35.68799973,-121.3143,35.68360138,-121.32,35.68360138,-121.3143
LTM_CCFRP,Cal Poly,Piedras Blancas,Piedras Blancas State Marine Reserve,Piedras Blancas SMR,BL14,BL,MPA,35.68484879,-121.3089,354,35.68709946,-121.3117,35.68709946,-121.3061,35.68259811,-121.3117,35.68259811,-121.3061
LTM_CCFRP,Cal Poly,Piedras Blancas,Piedras Blancas State Marine Reserve,Piedras Blancas SMR,BL15,BL,MPA,35.68465042,-121.3021,354,35.68690109,-121.3049,35.68690109,-121.2993,35.68239975,-121.3049,35.68239975,-121.2993
LTM_CCFRP,Cal Poly,Piedras Blancas,Piedras Blancas State Marine Reserve,Piedras Blancas SMR,BL16,BL,MPA,35.68059921,-121.3236,354,35.68280029,-121.3263,35.68280029,-121.3209,35.67839813,-121.3263,35.67839813,-121.3209
LTM_CCFRP,Cal Poly,Piedras Blancas,Piedras Blancas State Marine Reserve,Piedras Blancas SMR,BL17,BL,MPA,35.6806488,-121.317,354,35.68289948,-121.3198,35.68289948,-121.3142,35.67839813,-121.3198,35.67839813,-121.3142
LTM_CCFRP,Cal Poly,Piedras Blancas,Piedras Blancas State Marine Reserve,Piedras Blancas SMR,BL18,BL,MPA,35.67945099,-121.30475,354,35.68170166,-121.3076,35.68170166,-121.3019,35.67720032,-121.3076,35.67720032,-121.3019
LTM_CCFRP,Cal Poly,Piedras Blancas,Piedras Blancas State Marine Reserve,Piedras Blancas SMR,BL19,BL,MPA,35.67535019,-121.3191,354,35.67760086,-121.3218,35.67760086,-121.3164,35.67309952,-121.3218,35.67309952,-121.3164
LTM_CCFRP,Cal Poly,Piedras Blancas,Piedras Blancas State Marine Reserve,Piedras Blancas SMR,BL20,BL,MPA,35.67539978,-121.312,354,35.67760086,-121.3147,35.67760086,-121.3093,35.6731987,-121.3147,35.6731987,-121.3093
LTM_CCFRP,Cal Poly,Piedras Blancas,Piedras Blancas State Marine Reserve,Piedras Blancas SMR,BL21,BL,MPA,35.67435074,-121.3053,354,35.67649841,-121.308,35.67649841,-121.3026,35.67219925,-121.308,35.67219925,-121.3026
LTM_CCFRP,Cal Poly,Piedras Blancas,Piedras Blancas State Marine Reserve,Piedras Blancas SMR,BL22,BL,MPA,35.66910172,-121.3093,354,35.67129898,-121.3121,35.67129898,-121.3065,35.66690063,-121.3121,35.66690063,-121.3065
LTM_CCFRP,Cal Poly,Piedras Blancas,Piedras Blancas State Marine Reserve,Piedras Blancas SMR,BL23,BL,MPA,35.66400146,-121.3114,354,35.66619873,-121.3142,35.66619873,-121.3086,35.66180038,-121.3142,35.66180038,-121.3086
LTM_CCFRP,Cal Poly,Piedras Blancas,Piedras Blancas State Marine Reserve,Piedras Blancas SMR,BL24,BL,MPA,35.66389847,-121.30345,354,35.66609955,-121.3062,35.66609955,-121.3007,35.6617012,-121.3062,35.6617012,-121.3007
LTM_CCFRP,Cal Poly,Piedras Blancas,Piedras Blancas State Marine Reserve,Piedras Blancas SMR,BL25,BL,MPA,35.66329956,-121.29555,354,35.66550064,-121.2983,35.66550064,-121.2928,35.66109848,-121.2983,35.66109848,-121.2928
LTM_CCFRP,Cal Poly,Piedras Blancas,Piedras Blancas State Marine Reserve,Piedras Blancas SMR,BL26,BL,MPA,35.65796661,-121.302778,354,35.66025543,-121.305491,35.66025543,-121.29997,35.65570068,-121.29997,35.65570068,-121.29997
LTM_CCFRP,Cal Poly,Piedras Blancas,Piedras Blancas State Marine Reserve,Piedras Blancas SMR,BL27,BL,MPA,35.65755081,-121.29655,354,35.65969849,-121.2993,35.65969849,-121.2938,35.65539932,-121.2993,35.65539932,-121.2938
LTM_CCFRP,Cal Poly,Piedras Blancas,Piedras Blancas State Marine Reserve,Piedras Blancas SMR,BL28,BL,MPA,35.65805054,-121.2901,354,35.66030121,-121.2929,35.66030121,-121.2873,35.65579987,-121.2929,35.65579987,-121.2873
LTM_CCFRP,Cal Poly,Piedras Blancas,Piedras Blancas State Marine Reserve,Piedras Blancas SMR,BL29,BL,MPA,35.65814972,-121.28065,354,35.66040039,-121.2834,35.66040039,-121.2779,35.65589905,-121.2834,35.65589905,-121.2779
LTM_CCFRP,Cal Poly,Piedras Blancas,Piedras Blancas State Marine Reserve,Piedras Blancas SMR,BL30,BL,MPA,35.65790176,-121.27245,354,35.66009903,-121.2752,35.66009903,-121.2697,35.65570068,-121.2752,35.65570068,-121.2697
LTM_CCFRP,Cal Poly,Piedras Blancas,Piedras Blancas State Marine Reserve,Piedras Blancas SMR,BL31,BL,MPA,35.65485001,-121.26615,354,35.65710068,-121.2689,35.65710068,-121.2634,35.65259933,-121.2689,35.65259933,-121.2634
LTM_CCFRP,Cal Poly,Piedras Blancas,,,BL32,BL,REF,35.64645004,-121.25685,354,35.64870071,-121.2596,35.64870071,-121.2541,35.64419937,-121.2596,35.64419937,-121.2541
LTM_CCFRP,Cal Poly,Piedras Blancas,,,BL33,BL,REF,35.64630127,-121.24965,354,35.64849854,-121.2524,35.64849854,-121.2469,35.64410019,-121.2524,35.64410019,-121.2469
LTM_CCFRP,Cal Poly,Piedras Blancas,,,BL34,BL,REF,35.64075089,-121.2521,354,35.64300156,-121.2549,35.64300156,-121.2493,35.63850021,-121.2549,35.63850021,-121.2493
LTM_CCFRP,Cal Poly,Piedras Blancas,,,BL35,BL,REF,35.64144897,-121.24215,354,35.64369965,-121.2449,35.64369965,-121.2394,35.6391983,-121.2449,35.6391983,-121.2394
LTM_CCFRP,Cal Poly,Piedras Blancas,,,BL36,BL,REF,35.64175034,-121.23515,354,35.64400101,-121.2379,35.64400101,-121.2324,35.63949966,-121.2379,35.63949966,-121.2324
LTM_CCFRP,Cal Poly,Piedras Blancas,,,BL37,BL,REF,35.64229965,-121.22735,354,35.64450073,-121.2301,35.64450073,-121.2246,35.64009857,-121.2301,35.64009857,-121.2246
LTM_CCFRP,Cal Poly,Piedras Blancas,,,BL38,BL,REF,35.64154816,-121.2193,354,35.64379883,-121.2221,35.64379883,-121.2165,35.6393013,-121.2221,35.6393013,-121.2165
LTM_CCFRP,Cal Poly,Piedras Blancas,,,BL39,BL,REF,35.63544846,-121.24985,354,35.63769913,-121.2526,35.63769913,-121.2471,35.6332016,-121.2526,35.6332016,-121.2471
LTM_CCFRP,Cal Poly,Piedras Blancas,,,BL40,BL,REF,35.63660049,-121.2374,354,35.63880157,-121.2402,35.63880157,-121.2346,35.63439941,-121.2402,35.63439941,-121.2346
LTM_CCFRP,Cal Poly,Piedras Blancas,,,BL41,BL,REF,35.6365509,-121.2304,354,35.63880157,-121.2332,35.63880157,-121.2276,35.63430023,-121.2332,35.63430023,-121.2276
LTM_CCFRP,Cal Poly,Piedras Blancas,,,BL42,BL,REF,35.6365509,-121.22425,354,35.63880157,-121.227,35.63880157,-121.2215,35.63430023,-121.227,35.63430023,-121.2215
LTM_CCFRP,Cal Poly,Piedras Blancas,,,BL43,BL,REF,35.63505173,-121.21695,354,35.63729858,-121.2197,35.63729858,-121.2142,35.63280106,-121.2197,35.63280106,-121.2142
LTM_CCFRP,Cal Poly,Piedras Blancas,,,BL44,BL,REF,35.63525009,-121.2105,354,35.63750076,-121.2133,35.63750076,-121.2077,35.63299942,-121.2133,35.63299942,-121.2077
LTM_CCFRP,Cal Poly,Piedras Blancas,,,BL45,BL,REF,35.63420105,-121.20415,354,35.63639832,-121.2069,35.63639832,-121.2014,35.63199997,-121.2069,35.63199997,-121.2014
LTM_CCFRP,Cal Poly,Piedras Blancas,,,BL46,BL,REF,35.63264847,-121.24365,354,35.63489914,-121.2464,35.63489914,-121.2409,35.63040161,-121.2464,35.63040161,-121.2409
LTM_CCFRP,Cal Poly,Piedras Blancas,,,BL47,BL,REF,35.63114929,-121.23625,354,35.63339996,-121.239,35.63339996,-121.2335,35.62889862,-121.239,35.62889862,-121.2335
LTM_CCFRP,Cal Poly,Piedras Blancas,,,BL48,BL,REF,35.63135147,-121.22975,354,35.63359833,-121.2325,35.63359833,-121.227,35.6291008,-121.2325,35.6291008,-121.227
LTM_CCFRP,Cal Poly,Piedras Blancas,,,BL49,BL,REF,35.63159943,-121.22345,354,35.63380051,-121.2262,35.63380051,-121.2207,35.62939835,-121.2262,35.62939835,-121.2207
LTM_CCFRP,Cal Poly,Piedras Blancas,,,BL50,BL,REF,35.62704849,-121.2432,354,35.62929916,-121.246,35.62929916,-121.2404,35.62480164,-121.246,35.62480164,-121.2404
LTM_CCFRP,Cal Poly,Piedras Blancas,,,BL51,BL,REF,35.62620163,-121.23705,354,35.62850189,-121.2398,35.62850189,-121.2343,35.62390137,-121.2398,35.62390137,-121.2343
LTM_CCFRP,Cal Poly,Piedras Blancas,,,BL52,BL,REF,35.62514877,-121.2299,354,35.62739944,-121.2327,35.62739944,-121.2271,35.6228981,-121.2327,35.6228981,-121.2271
LTM_CCFRP,Cal Poly,Piedras Blancas,,,BL53,BL,REF,35.62614822,-121.22075,354,35.6283989,-121.2235,35.6283989,-121.218,35.62390137,-121.2235,35.62390137,-121.218
LTM_CCFRP,Cal Poly,Piedras Blancas,,,BL54,BL,REF,35.61944962,-121.22285,354,35.62170029,-121.2256,35.62170029,-121.2201,35.61719894,-121.2256,35.61719894,-121.2201
LTM_CCFRP,Cal Poly,Piedras Blancas,,,BL55,BL,REF,35.61925125,-121.21515,354,35.62149811,-121.2179,35.62149811,-121.2124,35.61700058,-121.2179,35.61700058,-121.2124
LTM_CCFRP,Cal Poly,Piedras Blancas,,,BL56,BL,REF,35.61840057,-121.20845,354,35.62060165,-121.2112,35.62060165,-121.2057,35.61619949,-121.2112,35.61619949,-121.2057
LTM_CCFRP,Cal Poly,Piedras Blancas,,,BL57,BL,REF,35.61334991,-121.2038,354,35.61560059,-121.2066,35.61560059,-121.201,35.61109924,-121.2066,35.61109924,-121.201
LTM_CCFRP,Cal Poly,Piedras Blancas,Piedras Blancas State Marine Reserve,Piedras Blancas SMR,BLMM,BL,MPA,,,,,,,,,,,
LTM_CCFRP,Cal Poly,Piedras Blancas,,,BLRR,BL,REF,,,,,,,,,,,
LTM_CCFRP,HSU,South Cape Mendocino,,,CM01,CM,REF,40.45754242,-124.4494847,354,40.45975113,-124.452485,40.45983505,-124.4465961,40.45533371,-124.4464845,40.4552536,-124.4523733
LTM_CCFRP,HSU,South Cape Mendocino,,,CM02,CM,REF,40.4666214,-124.4426045,354,40.46883011,-124.4455975,40.46891403,-124.4397085,40.46441269,-124.4395979,40.46433258,-124.4455146
LTM_CCFRP,HSU,South Cape Mendocino,,,CM03,CM,REF,40.45635605,-124.4364864,354,40.45856476,-124.4394862,40.45864487,-124.4335974,40.45414734,-124.4334866,40.45406342,-124.4393754
LTM_CCFRP,HSU,South Cape Mendocino,,,CM04,CM,REF,40.4653511,-124.4360901,354,40.46755981,-124.4390828,40.46764374,-124.4331939,40.4631424,-124.4330837,40.46306229,-124.4390003
LTM_CCFRP,HSU,South Cape Mendocino,,,CM05,CM,REF,40.4562912,-124.4559442,354,40.45849991,-124.4589446,40.45858383,-124.4530558,40.45408249,-124.4529438,40.45399857,-124.4588325
LTM_CCFRP,HSU,South Cape Mendocino,,,CM06,CM,REF,40.47163391,-124.4379934,354,40.47384262,-124.4409864,40.47392654,-124.435097,40.4694252,-124.4349866,40.46934509,-124.4409038
LTM_CCFRP,HSU,South Cape Mendocino,,,CM07,CM,REF,40.45643616,-124.4300017,354,40.45864487,-124.4330013,40.45872498,-124.4271125,40.45422745,-124.4270021,40.45414352,-124.432891
LTM_CCFRP,HSU,South Cape Mendocino,,,CM08,CM,REF,40.46543121,-124.4296046,354,40.46764374,-124.432597,40.46772385,-124.4267082,40.4632225,-124.4265984,40.4631424,-124.432515
LTM_CCFRP,HSU,South Cape Mendocino,,,CM09,CM,REF,40.45741653,-124.423536,354,40.45962524,-124.4265354,40.45970535,-124.4206465,40.45520782,-124.4205366,40.4551239,-124.4264255
LTM_CCFRP,HSU,South Cape Mendocino,,,CM10,CM,REF,40.46654129,-124.4490902,354,40.46875,-124.4520833,40.46883392,-124.4461944,40.46433258,-124.4460833,40.46424866,-124.452
LTM_CCFRP,HSU,South Cape Mendocino,,,CM11,CM,REF,40.45762634,-124.443,354,40.45983505,-124.446,40.45991516,-124.4401111,40.45541763,-124.4399999,40.45533371,-124.4458888
LTM_CCFRP,HSU,South Cape Mendocino,,,CM12,CM,REF,40.46551132,-124.423119,354,40.46772385,-124.4261112,40.46780396,-124.4202224,40.46330261,-124.420113,40.4632225,-124.4260297
LTM_CCFRP,HSU,South Cape Mendocino,,,CM13,CM,REF,40.47084808,-124.4285399,354,40.47306061,-124.4315326,40.47314072,-124.4256432,40.46864319,-124.4255335,40.46855927,-124.4314506
LTM_CCFRP,HSU,South Cape Mendocino,,,CM14,CM,REF,40.4796257,-124.484173,354,40.48183441,-124.4871796,40.48191833,-124.481263,40.47741699,-124.48118,40.47733307,-124.487069
LTM_CCFRP,HSU,South Cape Mendocino,,,CM15,CM,REF,40.47954178,-124.4906597,354,40.48175049,-124.4936666,40.48183441,-124.48775,40.47733307,-124.4876666,40.47724915,-124.4935555
LTM_CCFRP,HSU,South Cape Mendocino,,,CM16,CM,REF,40.47970963,-124.4776862,354,40.48191833,-124.4806927,40.48199844,-124.474776,40.47750092,-124.4746935,40.47741699,-124.4805824
LTM_CCFRP,HSU,South Cape Mendocino,,,CM17,CM,REF,40.47945786,-124.4971465,354,40.48166656,-124.5001535,40.48175049,-124.494237,40.47724915,-124.4941531,40.47716522,-124.500042
LTM_CCFRP,HSU,South Cape Mendocino,,,CM18,CM,REF,40.48466492,-124.4777949,354,40.48686981,-124.4808015,40.48695374,-124.4748844,40.48245239,-124.4748019,40.48236847,-124.4806913
LTM_CCFRP,HSU,South Cape Mendocino,,,CM19,CM,REF,40.48458099,-124.4842821,354,40.48678589,-124.487289,40.48686981,-124.4813719,40.48236847,-124.4812889,40.48228836,-124.4871783
LTM_CCFRP,HSU,South Cape Mendocino,,,CM20,CM,REF,40.48449707,-124.4907693,354,40.48670197,-124.4937764,40.48678589,-124.4878594,40.48228836,-124.487776,40.48220444,-124.4936653
LTM_CCFRP,HSU,South Cape Mendocino,,,CM21,CM,REF,40.48441315,-124.4972565,354,40.48661804,-124.5002638,40.48670197,-124.4943468,40.48220444,-124.494263,40.48212051,-124.5001523
LTM_CCFRP,HSU,South Cape Mendocino,,,CM22,CM,REF,40.48432922,-124.5037437,354,40.48653412,-124.5067512,40.48661804,-124.5008342,40.48212051,-124.5007499,40.48203659,-124.5066392
LTM_CCFRP,HSU,South Cape Mendocino,,,CM23,CM,REF,40.47937393,-124.5036332,354,40.48158264,-124.5066404,40.48166656,-124.5007239,40.47716522,-124.5006396,40.4770813,-124.5065285
LTM_CCFRP,HSU,South Cape Mendocino,,,CM24,CM,REF,40.46586609,-124.5027392,354,40.46808243,-124.5057355,40.46816635,-124.4998467,40.46363831,-124.4997351,40.46358109,-124.5056518
LTM_CCFRP,HSU,South Cape Mendocino,,,CM25,CM,REF,40.46603394,-124.4897683,354,40.46825027,-124.4927643,40.4683342,-124.4868754,40.46380615,-124.4867647,40.46374893,-124.4926814
LTM_CCFRP,HSU,South Cape Mendocino,,,CM26,CM,REF,40.46595001,-124.4962538,354,40.46816635,-124.4992499,40.46825027,-124.4933611,40.46372223,-124.4932499,40.46366501,-124.4991666
LTM_CCFRP,HSU,South Cape Mendocino,,,CM27,CM,REF,40.46611786,-124.4832829,354,40.4683342,-124.4862786,40.46841812,-124.4803898,40.46389008,-124.4802794,40.46383286,-124.4861962
LTM_CCFRP,HSU,South Cape Mendocino,,,CM28,CM,REF,40.46620178,-124.4767974,354,40.46841812,-124.4797929,40.46849823,-124.473904,40.46397018,-124.4737941,40.46391678,-124.4797109
LTM_CCFRP,HSU,South Cape Mendocino,,,CM29,CM,REF,40.47442245,-124.5035227,354,40.47662735,-124.5065297,40.47671127,-124.5006136,40.47221375,-124.5005293,40.47212982,-124.5064177
LTM_CCFRP,HSU,South Cape Mendocino,,,CM30,CM,REF,40.47442245,-124.5035227,354,40.47662735,-124.5065297,40.47671127,-124.5006136,40.47221375,-124.5005293,40.47212982,-124.5064177
LTM_CCFRP,HSU,South Cape Mendocino,,,CM31,CM,REF,40.47093964,-124.4934156,354,40.47315979,-124.4964119,40.4732399,-124.4905226,40.46871185,-124.4904116,40.46865845,-124.4963287
LTM_CCFRP,HSU,South Cape Mendocino,,,CM32,CM,REF,40.47103119,-124.48634,354,40.47325134,-124.4893361,40.47333145,-124.4834468,40.46880341,-124.4833363,40.46875,-124.4892534
LTM_CCFRP,HSU,South Cape Mendocino,,,CM33,CM,REF,40.47111511,-124.4798541,354,40.47333145,-124.4828499,40.47341537,-124.4769606,40.46888733,-124.4768505,40.46883392,-124.4827677
LTM_CCFRP,HSU,South Cape Mendocino,,,CM34,CM,REF,40.46099472,-124.4961438,354,40.46321487,-124.4991397,40.46329498,-124.4932514,40.45876694,-124.4931402,40.45871353,-124.4990565
LTM_CCFRP,HSU,South Cape Mendocino,,,CM35,CM,REF,40.4609108,-124.5026288,354,40.46312714,-124.5056249,40.46321106,-124.4997365,40.45868301,-124.4996249,40.45862961,-124.5055412
LTM_CCFRP,HSU,South Cape Mendocino,,,CM36,CM,REF,40.46107864,-124.4896589,354,40.4632988,-124.4926546,40.46337891,-124.4867662,40.45885086,-124.4866555,40.45879745,-124.4925717
LTM_CCFRP,HSU,South Cape Mendocino,,,CM37,CM,REF,40.46116257,-124.4831739,354,40.46338272,-124.4861694,40.46346283,-124.480281,40.45893478,-124.4801707,40.45888138,-124.486087
LTM_CCFRP,HSU,South Cape Mendocino,,,CM38,CM,REF,40.46124649,-124.4766889,354,40.46346283,-124.4796842,40.46354675,-124.4737957,40.45901871,-124.4736859,40.4589653,-124.4796022
LTM_CCFRP,HSU,South Cape Mendocino,,,CM39,CM,REF,40.46628189,-124.4703119,354,40.46850204,-124.4733072,40.46858215,-124.4674183,40.46405411,-124.4673088,40.4640007,-124.4732256
LTM_CCFRP,HSU,South Cape Mendocino,,,CM40,CM,REF,40.46133041,-124.4702039,354,40.46354675,-124.4731989,40.46363068,-124.4673105,40.45910263,-124.467201,40.45904541,-124.4731174
LTM_CCFRP,HSU,South Cape Mendocino,,,CM41,CM,REF,40.46636581,-124.4638263,354,40.46858215,-124.4668215,40.46866608,-124.4609325,40.46413803,-124.4608235,40.46408463,-124.4667403
LTM_CCFRP,HSU,South Cape Mendocino,,,CM42,CM,REF,40.46141052,-124.4637188,354,40.46363068,-124.4667137,40.46371078,-124.4608252,40.45918274,-124.4607162,40.45912933,-124.4666326
LTM_CCFRP,HSU,South Cape Mendocino,,,CM43,CM,REF,40.47119904,-124.4733681,354,40.47341537,-124.4763638,40.4734993,-124.4704744,40.46897125,-124.4703647,40.46891785,-124.476282
LTM_CCFRP,HSU,South Cape Mendocino,,,CM44,CM,REF,40.47127914,-124.4668821,354,40.4734993,-124.4698775,40.47357941,-124.4639882,40.46905136,-124.4638789,40.46899796,-124.4697962
LTM_CCFRP,HSU,South Cape Mendocino,,,CM45,CM,REF,40.46644592,-124.4573408,354,40.46866608,-124.4603357,40.46874619,-124.4544467,40.46421814,-124.4543381,40.46416473,-124.460255
LTM_CCFRP,HSU,South Cape Mendocino,,,CM46,CM,REF,40.47136307,-124.4603961,354,40.47357941,-124.4633913,40.47366333,-124.4575019,40.46913528,-124.4573931,40.46908188,-124.4633104
LTM_CCFRP,HSU,South Cape Mendocino,,,CM47,CM,REF,40.46149445,-124.4572337,354,40.46371078,-124.4602284,40.46379471,-124.4543399,40.45926666,-124.4542313,40.45921326,-124.4601477
LTM_CCFRP,HSU,South Cape Mendocino,,,CM48,CM,REF,40.48249435,-124.4712584,354,40.48470306,-124.4742648,40.48478317,-124.4683479,40.48028564,-124.4682657,40.48020172,-124.474155
LTM_CCFRP,HSU,South Cape Mendocino,,,CM49,CM,REF,40.4828949,-124.5102006,354,40.48509979,-124.5132082,40.48518372,-124.5072914,40.48068237,-124.5072067,40.48059845,-124.5130958
LTM_CCFRP,HSU,South Cape Mendocino,,,CM50,CM,REF,40.47792435,-124.5112689,354,40.48012924,-124.5142764,40.48021317,-124.50836,40.47571564,-124.5082752,40.47563171,-124.5141639
LTM_CCFRP,HSU,South Cape Mendocino,,,CM51,CM,REF,40.47297287,-124.5111579,354,40.47517776,-124.5141651,40.47526169,-124.5082491,40.47076035,-124.5081644,40.47067642,-124.5140526
LTM_CCFRP,HSU,South Cape Mendocino,,,CM52,CM,REF,40.46801758,-124.5110468,354,40.47022247,-124.5140538,40.47031021,-124.5081383,40.46580887,-124.5080535,40.46572495,-124.5139414
LTM_CCFRP,HSU,South Cape Mendocino,,,CM53,CM,REF,40.46239853,-124.5103311,354,40.46460342,-124.5133378,40.46468735,-124.5074228,40.460186,-124.5073381,40.46010208,-124.5132255
LTM_CCFRP,HSU,South Cape Mendocino,South Cape Mendocino State Marine Reserve,South Cape Mendocino SMR,CM54,CM,MPA,40.42641068,-124.4184205,354,40.42407608,-124.4154207,40.42407608,-124.4214207,40.42874527,-124.4214203,40.42874146,-124.4154203
LTM_CCFRP,HSU,South Cape Mendocino,South Cape Mendocino State Marine Reserve,South Cape Mendocino SMR,CM55,CM,MPA,40.42625427,-124.4309127,354,40.42858887,-124.4339129,40.42858887,-124.4279129,40.42392349,-124.4279125,40.42392349,-124.4339125
LTM_CCFRP,HSU,South Cape Mendocino,South Cape Mendocino State Marine Reserve,South Cape Mendocino SMR,CM56,CM,MPA,40.43115616,-124.4353785,354,40.43348694,-124.4383791,40.43349075,-124.4323787,40.42882156,-124.4323779,40.42882156,-124.4383783
LTM_CCFRP,HSU,South Cape Mendocino,South Cape Mendocino State Marine Reserve,South Cape Mendocino SMR,CM57,CM,MPA,40.42617416,-124.4373945,354,40.42384338,-124.440394,40.42850876,-124.4403949,40.42850876,-124.4343949,40.42384338,-124.4343941
LTM_CCFRP,HSU,South Cape Mendocino,South Cape Mendocino State Marine Reserve,South Cape Mendocino SMR,CM58,CM,MPA,40.42137527,-124.4249156,354,40.42370987,-124.4279154,40.42370987,-124.4219158,40.41904068,-124.4219158,40.41904068,-124.4279154
LTM_CCFRP,HSU,South Cape Mendocino,South Cape Mendocino State Marine Reserve,South Cape Mendocino SMR,CM59,CM,MPA,40.43042755,-124.473639,354,40.43265152,-124.4766253,40.43270493,-124.470736,40.4282074,-124.4706526,40.42815018,-124.4765419
LTM_CCFRP,HSU,South Cape Mendocino,South Cape Mendocino State Marine Reserve,South Cape Mendocino SMR,CM60,CM,MPA,40.42633438,-124.4246666,354,40.42866516,-124.4276666,40.42866516,-124.4216666,40.42399979,-124.4216666,40.42399979,-124.4276666
LTM_CCFRP,HSU,South Cape Mendocino,South Cape Mendocino State Marine Reserve,South Cape Mendocino SMR,CM61,CM,MPA,40.42061615,-124.4834676,354,40.42282486,-124.4864742,40.42290878,-124.480558,40.41840744,-124.4804747,40.41832352,-124.4863632
LTM_CCFRP,HSU,South Cape Mendocino,South Cape Mendocino State Marine Reserve,South Cape Mendocino SMR,CM62,CM,MPA,40.43052292,-124.4836853,354,40.43273163,-124.4866924,40.43281555,-124.4807753,40.42831421,-124.4806919,40.42823029,-124.4865813
LTM_CCFRP,HSU,South Cape Mendocino,South Cape Mendocino State Marine Reserve,South Cape Mendocino SMR,CM63,CM,MPA,40.42070007,-124.4769865,354,40.42290878,-124.4799929,40.42298889,-124.4740766,40.41849136,-124.4739938,40.41840744,-124.4798823
LTM_CCFRP,HSU,South Cape Mendocino,South Cape Mendocino State Marine Reserve,South Cape Mendocino SMR,CM64,CM,MPA,40.42564774,-124.477684,354,40.42786789,-124.4806703,40.42792511,-124.4747814,40.42342377,-124.4746977,40.42337036,-124.4805866
LTM_CCFRP,HSU,South Cape Mendocino,South Cape Mendocino State Marine Reserve,South Cape Mendocino SMR,CM65,CM,MPA,40.42586899,-124.4605897,354,40.42808533,-124.463593,40.42816925,-124.457704,40.4236412,-124.4575926,40.42358398,-124.4634815
LTM_CCFRP,HSU,South Cape Mendocino,South Cape Mendocino State Marine Reserve,South Cape Mendocino SMR,CM66,CM,MPA,40.43079376,-124.4630541,354,40.4330101,-124.4660576,40.43309021,-124.4601682,40.42856598,-124.4600566,40.42850876,-124.4659459
LTM_CCFRP,HSU,South Cape Mendocino,South Cape Mendocino State Marine Reserve,South Cape Mendocino SMR,CM67,CM,MPA,40.42094421,-124.4581258,354,40.42316055,-124.4611287,40.42324448,-124.4552402,40.41871643,-124.4551289,40.41866302,-124.4610174
LTM_CCFRP,HSU,South Cape Mendocino,South Cape Mendocino State Marine Reserve,South Cape Mendocino SMR,CM68,CM,MPA,40.42107773,-124.4475201,354,40.42329407,-124.4505228,40.42337799,-124.4446342,40.41884995,-124.4445236,40.41879654,-124.4504121
LTM_CCFRP,HSU,South Cape Mendocino,South Cape Mendocino State Marine Reserve,South Cape Mendocino SMR,CM69,CM,MPA,40.43139267,-124.451278,354,40.43360901,-124.4542812,40.43368912,-124.4483917,40.42916107,-124.4482809,40.42910767,-124.4541703
LTM_CCFRP,HSU,South Cape Mendocino,South Cape Mendocino State Marine Reserve,South Cape Mendocino SMR,CM70,CM,MPA,40.42085648,-124.4651962,354,40.42307281,-124.4681993,40.42315674,-124.4623108,40.41862869,-124.4621991,40.41857147,-124.4680875
LTM_CCFRP,HSU,South Cape Mendocino,South Cape Mendocino State Marine Reserve,South Cape Mendocino SMR,CM71,CM,MPA,40.4187355,-124.4896144,354,40.42094421,-124.4926211,40.42102814,-124.486705,40.41652679,-124.4866213,40.41644287,-124.4925096
LTM_CCFRP,HSU,South Cape Mendocino,South Cape Mendocino State Marine Reserve,South Cape Mendocino SMR,CM72,CM,MPA,40.4263916,-124.4899601,354,40.4285965,-124.4929671,40.42868805,-124.487054,40.42417908,-124.4869667,40.42409515,-124.4928556
LTM_CCFRP,HSU,South Cape Mendocino,South Cape Mendocino State Marine Reserve,South Cape Mendocino SMR,CM73,CM,MPA,40.43224335,-124.4902071,354,40.43444824,-124.4932145,40.43453217,-124.4872972,40.43003082,-124.4872135,40.4299469,-124.4931029
LTM_CCFRP,HSU,South Cape Mendocino,South Cape Mendocino State Marine Reserve,South Cape Mendocino SMR,CM74,CM,MPA,40.42078018,-124.4710881,354,40.42299652,-124.4740915,40.42308044,-124.468203,40.4185524,-124.4680909,40.41849518,-124.4739793
LTM_CCFRP,HSU,South Cape Mendocino,South Cape Mendocino State Marine Reserve,South Cape Mendocino SMR,CM75,CM,MPA,40.42557526,-124.4835782,354,40.42777634,-124.4865833,40.42786789,-124.4806703,40.42337036,-124.4805866,40.42327881,-124.4864722
LTM_CCFRP,HSU,South Cape Mendocino,South Cape Mendocino State Marine Reserve,South Cape Mendocino SMR,CM76,CM,MPA,40.42572403,-124.4717916,354,40.4280014,-124.4688888,40.42350006,-124.4688055,40.42344284,-124.4746944,40.42794418,-124.4747777
LTM_CCFRP,HSU,South Cape Mendocino,South Cape Mendocino State Marine Reserve,South Cape Mendocino SMR,CM77,CM,MPA,40.42595291,-124.4541081,354,40.42816544,-124.4571111,40.42824936,-124.4512221,40.42372131,-124.4511111,40.42366791,-124.457
LTM_CCFRP,HSU,South Cape Mendocino,South Cape Mendocino State Marine Reserve,South Cape Mendocino SMR,CMMM,CM,MPA,,,,,,,,,,,
LTM_CCFRP,HSU,South Cape Mendocino,,,CMRR,CM,REF,,,,,,,,,,,
LTM_CCFRP,UCSB,Carrington Point,Carrington Point State Marine Reserve,Carrington Point SMR,CP01,CP,MPA,34.06427765,-120.0838087,354,34.06656265,-120.0864777,34.06650162,-120.0810645,34.06199646,-120.0811399,34.0620575,-120.0865528
LTM_CCFRP,UCSB,Carrington Point,Carrington Point State Marine Reserve,Carrington Point SMR,CP02,CP,MPA,34.06423187,-120.0782202,354,34.0619545,-120.0755448,34.06200409,-120.0809578,34.06650925,-120.0808958,34.06645966,-120.0754824
LTM_CCFRP,UCSB,Carrington Point,Carrington Point State Marine Reserve,Carrington Point SMR,CP03,CP,MPA,34.06425858,-120.0726853,354,34.06657791,-120.0753121,34.0664444,-120.0699008,34.06194305,-120.0700586,34.06207275,-120.0754697
LTM_CCFRP,UCSB,Carrington Point,Carrington Point State Marine Reserve,Carrington Point SMR,CP04,CP,MPA,34.06430435,-120.0670901,354,34.06206131,-120.0698104,34.06656647,-120.0697832,34.06654358,-120.0643696,34.06203842,-120.0643971
LTM_CCFRP,UCSB,Carrington Point,Carrington Point State Marine Reserve,Carrington Point SMR,CP05,CP,MPA,34.06422424,-120.0614227,354,34.06650925,-120.0640895,34.0664444,-120.0586765,34.06193924,-120.058756,34.06200409,-120.0641687
LTM_CCFRP,UCSB,Carrington Point,Carrington Point State Marine Reserve,Carrington Point SMR,CP06,CP,MPA,34.06041336,-120.0537771,354,34.06270218,-120.0564405,34.0626297,-120.0510278,34.05812454,-120.0511138,34.05819702,-120.0565262
LTM_CCFRP,UCSB,Carrington Point,Carrington Point State Marine Reserve,Carrington Point SMR,CP07,CP,MPA,34.04994965,-120.0457231,354,34.05223465,-120.0483898,34.0521698,-120.0429777,34.04766464,-120.0430564,34.04772949,-120.0484683
LTM_CCFRP,UCSB,Carrington Point,Carrington Point State Marine Reserve,Carrington Point SMR,CP08,CP,MPA,34.05963135,-120.083859,354,34.06194305,-120.0864906,34.06182098,-120.0810792,34.05731583,-120.0812276,34.05744171,-120.0866386
LTM_CCFRP,UCSB,Carrington Point,Carrington Point State Marine Reserve,Carrington Point SMR,CP09,CP,MPA,34.05957413,-120.0782818,354,34.06187057,-120.0809383,34.06178665,-120.0755259,34.05728149,-120.0756253,34.05736542,-120.0810375
LTM_CCFRP,UCSB,Carrington Point,Carrington Point State Marine Reserve,Carrington Point SMR,CP10,CP,MPA,34.05960083,-120.0725999,354,34.06192398,-120.07522,34.06177902,-120.0698093,34.05727768,-120.0699801,34.05741882,-120.0753905
LTM_CCFRP,UCSB,Carrington Point,Carrington Point State Marine Reserve,Carrington Point SMR,CP11,CP,MPA,34.05965805,-120.0668891,354,34.06197357,-120.069517,34.06184387,-120.0641059,34.05734253,-120.0642613,34.05747223,-120.0696722
LTM_CCFRP,UCSB,Carrington Point,Carrington Point State Marine Reserve,Carrington Point SMR,CP12,CP,MPA,34.05490494,-120.0731865,354,34.05722427,-120.0758105,34.05708694,-120.0703999,34.0525856,-120.0705627,34.05271912,-120.075973
LTM_CCFRP,UCSB,Carrington Point,Carrington Point State Marine Reserve,Carrington Point SMR,CP13,CP,MPA,34.05020523,-120.0761067,354,34.05252075,-120.0787343,34.05239105,-120.0733238,34.04788589,-120.0734793,34.04801559,-120.0788896
LTM_CCFRP,UCSB,Carrington Point,Carrington Point State Marine Reserve,Carrington Point SMR,CP14,CP,MPA,34.04956436,-120.0835701,354,34.05186844,-120.0862142,34.05176544,-120.0808029,34.0472641,-120.080926,34.04736328,-120.0863371
LTM_CCFRP,UCSB,Carrington Point,Carrington Point State Marine Reserve,Carrington Point SMR,CP15,CP,MPA,34.05020905,-120.0697944,354,34.05252838,-120.0724193,34.05239105,-120.0670089,34.04788971,-120.0671696,34.04802322,-120.0725797
LTM_CCFRP,UCSB,Carrington Point,Carrington Point State Marine Reserve,Carrington Point SMR,CP16,CP,MPA,34.05026245,-120.0640314,354,34.0525322,-120.0667137,34.05249405,-120.0613011,34.04798889,-120.0613493,34.04802704,-120.0667616
LTM_CCFRP,UCSB,Carrington Point,Carrington Point State Marine Reserve,Carrington Point SMR,CP17,CP,MPA,34.04558945,-120.0707309,354,34.0479126,-120.0733476,34.04776764,-120.067938,34.04326248,-120.0681143,34.04341125,-120.0735236
LTM_CCFRP,UCSB,Carrington Point,Carrington Point State Marine Reserve,Carrington Point SMR,CP18,CP,MPA,34.05248642,-120.0521597,354,34.05477524,-120.054823,34.05470276,-120.0494109,34.05020142,-120.0494964,34.05027008,-120.0549083
LTM_CCFRP,UCSB,Carrington Point,Carrington Point State Marine Reserve,Carrington Point SMR,CP19,CP,MPA,34.03989792,-120.0204967,354,34.04218674,-120.0231606,34.04211426,-120.0177493,34.0376091,-120.017833,34.03768158,-120.023244
LTM_CCFRP,UCSB,Carrington Point,Carrington Point State Marine Reserve,Carrington Point SMR,CP20,CP,MPA,34.04418945,-120.0492344,354,34.04641342,-120.0519749,34.04647064,-120.0465631,34.04196548,-120.046494,34.04190826,-120.0519056
LTM_CCFRP,UCSB,Carrington Point,Carrington Point State Marine Reserve,Carrington Point SMR,CP21,CP,MPA,34.04414749,-120.0566768,354,34.04188156,-120.0593649,34.04638672,-120.0594008,34.04641342,-120.0539886,34.04190826,-120.053953
LTM_CCFRP,UCSB,Carrington Point,,,CP22,CP,REF,34.05976105,-120.0895528,354,34.06204987,-120.0922143,34.06197739,-120.0868017,34.05747223,-120.0868915,34.05754471,-120.0923039
LTM_CCFRP,UCSB,Carrington Point,,,CP23,CP,REF,34.05514908,-120.0923555,354,34.05746841,-120.0949813,34.0573349,-120.0895705,34.05282974,-120.0897298,34.05296326,-120.0951403
LTM_CCFRP,UCSB,Carrington Point,,,CP24,CP,REF,34.05505753,-120.0980759,354,34.05737305,-120.1007072,34.05725098,-120.0952961,34.05274582,-120.0954447,34.05286789,-120.1008555
LTM_CCFRP,UCSB,Carrington Point,,,CP25,CP,REF,34.04777527,-120.1229408,354,34.05010605,-120.1255456,34.04994202,-120.1201365,34.04544067,-120.1203362,34.04560471,-120.125745
LTM_CCFRP,UCSB,Carrington Point,,,CP26,CP,REF,34.04475021,-120.1171739,354,34.04708099,-120.1197848,34.04692459,-120.1143755,34.04242325,-120.1145631,34.04257965,-120.1199722
LTM_CCFRP,UCSB,Carrington Point,,,CP27,CP,REF,34.05020905,-120.1287098,354,34.05250168,-120.1313695,34.05242157,-120.1259573,34.04792023,-120.1260502,34.04799652,-120.1314621
LTM_CCFRP,UCSB,Carrington Point,,,CP28,CP,REF,34.05071259,-120.1354112,354,34.05300903,-120.1380633,34.05291748,-120.1326514,34.04841614,-120.1327592,34.04850388,-120.1381709
LTM_CCFRP,UCSB,Carrington Point,,,CP29,CP,REF,34.0460701,-120.1353247,354,34.0438652,-120.1380832,34.04836655,-120.1379776,34.04827881,-120.132566,34.04377747,-120.1326718
LTM_CCFRP,UCSB,Carrington Point,,,CP30,CP,REF,34.0506897,-120.1412085,354,34.04847717,-120.1439613,34.05298233,-120.1438677,34.05290222,-120.1384555,34.04839706,-120.1385494
LTM_CCFRP,UCSB,Carrington Point,,,CP31,CP,REF,34.05368042,-120.1467297,354,34.05597687,-120.1493822,34.05588913,-120.14397,34.05138397,-120.1440773,34.05147171,-120.1494892
LTM_CCFRP,UCSB,Carrington Point,,,CP32,CP,REF,34.04135513,-120.1404226,354,34.04365921,-120.1430668,34.04355621,-120.1376557,34.03905106,-120.1377786,34.03915405,-120.1431893
LTM_CCFRP,UCSB,Carrington Point,,,CP33,CP,REF,34.04138565,-120.1347753,354,34.04364014,-120.1374793,34.04363632,-120.1320669,34.03913116,-120.1320714,34.03913498,-120.1374836
LTM_CCFRP,UCSB,Carrington Point,,,CP34,CP,REF,34.03993607,-120.1289548,354,34.03771973,-120.1317071,34.04222488,-120.1316139,34.04214859,-120.1262024,34.03764343,-120.1262959
LTM_CCFRP,UCSB,Carrington Point,,,CP35,CP,REF,34.04976654,-120.1029563,354,34.0520401,-120.1056351,34.05199432,-120.1002226,34.04748917,-120.1002777,34.04753494,-120.1056899
LTM_CCFRP,UCSB,Carrington Point,,,CP36,CP,REF,34.04549026,-120.1289348,354,34.04779816,-120.1315722,34.04768372,-120.1261613,34.04318237,-120.1262975,34.043293,-120.1317082
LTM_CCFRP,UCSB,Carrington Point,,,CP37,CP,REF,34.04001617,-120.1218544,354,34.04223251,-120.124607,34.04230881,-120.1191955,34.03780365,-120.1191021,34.03772736,-120.1245133
LTM_CCFRP,UCSB,Carrington Point,,,CP38,CP,REF,34.0394783,-120.1155361,354,34.04172516,-120.1182492,34.0417366,-120.112837,34.03723145,-120.1128232,34.03722,-120.1182352
LTM_CCFRP,UCSB,Carrington Point,Carrington Point State Marine Reserve,Carrington Point SMR,CPMM,CP,MPA,,,,,,,,,,,
LTM_CCFRP,UCSB,Carrington Point,,,CPRR,CP,REF,,,,,,,,,,,
LTM_CCFRP,MLML,Southeast Farallon Islands,,,FN01,FN,REF,37.73252487,-123.036833,354,37.73477554,-123.0396714,37.73477936,-123.0339968,37.7302742,-123.0339948,37.73027039,-123.039669
LTM_CCFRP,MLML,Southeast Farallon Islands,,,FN02,FN,REF,37.7275238,-123.0395126,354,37.72977448,-123.0423509,37.72977448,-123.0366768,37.72526932,-123.0366745,37.72526932,-123.0423484
LTM_CCFRP,MLML,Southeast Farallon Islands,,,FN03,FN,REF,37.72452545,-123.0457146,354,37.72677994,-123.048553,37.72677994,-123.042879,37.72227478,-123.0428764,37.72227097,-123.04855
LTM_CCFRP,MLML,Southeast Farallon Islands,,,FN04,FN,REF,37.71969223,-123.0452649,354,37.7219429,-123.0481031,37.72194672,-123.0424295,37.71743774,-123.0424269,37.71743774,-123.0481001
LTM_CCFRP,MLML,Southeast Farallon Islands,,,FN05,FN,REF,37.72061539,-123.0388219,354,37.72286987,-123.0416599,37.72286987,-123.0359862,37.71836472,-123.035984,37.7183609,-123.0416574
LTM_CCFRP,MLML,Southeast Farallon Islands,,,FN06,FN,REF,37.72209167,-123.0324323,354,37.72434235,-123.0352702,37.72434616,-123.0295964,37.71983719,-123.0295946,37.71983719,-123.035268
LTM_CCFRP,MLML,Southeast Farallon Islands,,,FN07,FN,REF,37.71438599,-123.0452243,354,37.71663666,-123.0480622,37.71664047,-123.0423891,37.7121315,-123.0423865,37.7121315,-123.0480593
LTM_CCFRP,MLML,Southeast Farallon Islands,,,FN08,FN,REF,37.71539688,-123.0389746,354,37.71764755,-123.0418125,37.71765137,-123.0361392,37.7131424,-123.036137,37.7131424,-123.0418099
LTM_CCFRP,MLML,Southeast Farallon Islands,,,FN09,FN,REF,37.71730804,-123.0323301,354,37.71955872,-123.0351678,37.71956253,-123.0294944,37.71505356,-123.0294926,37.71505356,-123.0351656
LTM_CCFRP,MLML,Southeast Farallon Islands,Southeast Farallon Island State Marine Reserve,Southeast Farallon Island SMR,FN10,FN,MPA,37.70669556,-123.0111215,354,37.70895004,-123.0139581,37.70895004,-123.0082855,37.70444489,-123.008285,37.70444489,-123.0139573
LTM_CCFRP,MLML,Southeast Farallon Islands,Southeast Farallon Island State Marine Reserve,Southeast Farallon Island SMR,FN11,FN,MPA,37.70741653,-123.0026983,354,37.70967102,-123.0055347,37.70967102,-122.999862,37.70516586,-122.999862,37.70516586,-123.0055343
LTM_CCFRP,MLML,Southeast Farallon Islands,Southeast Farallon Island State Marine Reserve,Southeast Farallon Island SMR,FN12,FN,MPA,37.70122147,-122.9952476,354,37.70347595,-122.9980835,37.70347595,-122.9924114,37.69896698,-122.9924118,37.69896698,-122.9980837
LTM_CCFRP,MLML,Southeast Farallon Islands,Southeast Farallon Island State Marine Reserve,Southeast Farallon Island SMR,FN13,FN,MPA,37.69532394,-123.0290111,354,37.69757462,-123.0318479,37.69757462,-123.0261761,37.69306946,-123.0261746,37.69306946,-123.0318459
LTM_CCFRP,MLML,Southeast Farallon Islands,Southeast Farallon Island State Marine Reserve,Southeast Farallon Island SMR,FN14,FN,MPA,37.69038391,-123.027279,354,37.6926384,-123.0301155,37.6926384,-123.0244441,37.68813324,-123.0244427,37.68813324,-123.0301137
LTM_CCFRP,MLML,Southeast Farallon Islands,Southeast Farallon Island State Marine Reserve,Southeast Farallon Island SMR,FN15,FN,MPA,37.6904068,-123.0210844,354,37.69265747,-123.0239207,37.69265747,-123.0182494,37.68815231,-123.0182483,37.68815231,-123.0239193
LTM_CCFRP,MLML,Southeast Farallon Islands,Southeast Farallon Island State Marine Reserve,Southeast Farallon Island SMR,FN16,FN,MPA,37.68886948,-123.0149351,354,37.69112015,-123.0177711,37.69112015,-123.0120999,37.68661499,-123.0120992,37.68661499,-123.01777
LTM_CCFRP,MLML,Southeast Farallon Islands,Southeast Farallon Island State Marine Reserve,Southeast Farallon Island SMR,FN17,FN,MPA,37.68575668,-123.0238067,354,37.68800735,-123.0266429,37.68801117,-123.0209719,37.6835022,-123.0209706,37.6835022,-123.0266413
LTM_CCFRP,MLML,Southeast Farallon Islands,Southeast Farallon Island State Marine Reserve,Southeast Farallon Island SMR,FN18,FN,MPA,37.68385315,-123.0176123,354,37.68610382,-123.0204483,37.68610764,-123.0147774,37.68159866,-123.0147765,37.68159866,-123.020447
LTM_CCFRP,MLML,Southeast Farallon Islands,Southeast Farallon Island State Marine Reserve,Southeast Farallon Island SMR,FN19,FN,MPA,37.68127441,-123.0083622,354,37.68352509,-123.0111978,37.68352509,-123.0055272,37.67901993,-123.0055268,37.67901993,-123.0111971
LTM_CCFRP,MLML,Southeast Farallon Islands,Southeast Farallon Island State Marine Reserve,Southeast Farallon Island SMR,FN20,FN,MPA,37.68098068,-123.0010331,354,37.68323517,-123.0038684,37.68323517,-122.9981978,37.67873001,-122.9981979,37.67873001,-123.0038682
LTM_CCFRP,MLML,Southeast Farallon Islands,Southeast Farallon Island State Marine Reserve,Southeast Farallon Island SMR,FN21,FN,MPA,37.68571854,-123.001017,354,37.68796921,-123.0038526,37.68796921,-122.9981816,37.68346405,-122.9981817,37.68346405,-123.0038523
LTM_CCFRP,MLML,Southeast Farallon Islands,Southeast Farallon Island State Marine Reserve,Southeast Farallon Island SMR,FN22,FN,MPA,37.68598175,-122.9948622,354,37.68823624,-122.9976976,37.68823624,-122.9920266,37.68373108,-122.9920271,37.68373108,-122.9976977
LTM_CCFRP,MLML,Southeast Farallon Islands,Southeast Farallon Island State Marine Reserve,Southeast Farallon Island SMR,FNMM,FN,MPA,,,,,,,,,,,
LTM_CCFRP,MLML,Southeast Farallon Islands,,,FNRR,FN,REF,,,,,,,,,,,
LTM_CCFRP,MLML,Southeast Farallon Islands,Southeast Farallon Island State Marine Reserve,Southeast Farallon Island SMR,FNXX,FN,MPA,,,,,,,,,,,
LTM_CCFRP,SIO,Laguna Beach,,,LB01,LB,REF,33.57623291,-117.8562286,354,33.57397461,-117.8584633,33.57849503,-117.8584633,33.57849503,-117.8539938,33.57397461,-117.8539938
LTM_CCFRP,SIO,Laguna Beach,,,LB02,LB,REF,33.56375504,-117.8376994,354,33.56149292,-117.8399342,33.56601334,-117.8399342,33.56601334,-117.8354647,33.56149292,-117.8354647
LTM_CCFRP,SIO,Laguna Beach,Laguna Beach State Marine Reserve,Laguna Beach SMR,LB03,LB,MPA,33.53889847,-117.7922968,354,33.53663635,-117.7945316,33.54115677,-117.7945316,33.54115677,-117.7900621,33.53663635,-117.7900621
LTM_CCFRP,SIO,Laguna Beach,Laguna Beach State Marine Reserve,Laguna Beach SMR,LB04,LB,MPA,33.53562927,-117.7832595,354,33.53336716,-117.7854943,33.53788757,-117.7854943,33.53788757,-117.7810248,33.53336716,-117.7810248
LTM_CCFRP,SIO,Laguna Beach,Laguna Beach State Marine Reserve,Laguna Beach SMR,LB05,LB,MPA,33.53110886,-117.7808515,354,33.52884674,-117.7830863,33.53336716,-117.7830863,33.53336716,-117.7786167,33.52884674,-117.7786167
LTM_CCFRP,SIO,Laguna Beach,Laguna Beach State Marine Reserve,Laguna Beach SMR,LBMM,LB,MPA,,,,,,,,,,,
LTM_CCFRP,SIO,Laguna Beach,,,LBRR,LB,REF,,,,,,,,,,,
LTM_CCFRP,SIO,South La Jolla,,,LJ01,LJ,REF,32.84926224,-117.2993937,354,32.8470726,-117.3021357,32.85158539,-117.301984,32.85145569,-117.2966515,32.8469429,-117.2968035
LTM_CCFRP,SIO,South La Jolla,,,LJ02,LJ,REF,32.84415054,-117.307428,354,32.84195709,-117.3101698,32.84646988,-117.3100184,32.84634018,-117.3046862,32.84182739,-117.3048378
LTM_CCFRP,SIO,South La Jolla,,,LJ03,LJ,REF,32.84446335,-117.3012071,354,32.8422699,-117.3039489,32.84678268,-117.3037973,32.8466568,-117.2984651,32.84214401,-117.2986171
LTM_CCFRP,SIO,South La Jolla,,,LJ04,LJ,REF,32.83905792,-117.3075959,354,32.83686447,-117.3103374,32.84137726,-117.3101862,32.84125137,-117.3048543,32.83673859,-117.3050058
LTM_CCFRP,SIO,South La Jolla,,,LJ05,LJ,REF,32.83916473,-117.3018461,354,32.83697128,-117.3045878,32.84148407,-117.3044362,32.84135437,-117.2991044,32.83684158,-117.2992562
LTM_CCFRP,SIO,South La Jolla,,,LJ06,LJ,REF,32.83378601,-117.3076919,354,32.83159637,-117.3104334,32.83610916,-117.3102818,32.83597946,-117.3049503,32.83146667,-117.3051021
LTM_CCFRP,SIO,South La Jolla,,,LJ07,LJ,REF,32.83372498,-117.3019375,354,32.83153534,-117.3046791,32.83604813,-117.3045276,32.83591843,-117.2991957,32.83140564,-117.2993476
LTM_CCFRP,SIO,South La Jolla,,,LJ08,LJ,REF,32.82891846,-117.3072528,354,32.82672501,-117.3099941,32.83123779,-117.3098425,32.83111191,-117.3045113,32.82659912,-117.3046632
LTM_CCFRP,SIO,South La Jolla,,,LJ09,LJ,REF,32.82891846,-117.3014659,354,32.82672501,-117.3042072,32.83123779,-117.3040557,32.83111191,-117.2987245,32.82659912,-117.2988763
LTM_CCFRP,SIO,South La Jolla,South La Jolla State Marine Reserve,South La Jolla SMR,LJ10,LJ,MPA,32.81975937,-117.3043096,354,32.81756592,-117.3070501,32.8220787,-117.306899,32.82195282,-117.301569,32.81744003,-117.3017204
LTM_CCFRP,SIO,South La Jolla,South La Jolla State Marine Reserve,South La Jolla SMR,LJ11,LJ,MPA,32.82025146,-117.2979792,354,32.81805801,-117.3007203,32.8225708,-117.3005685,32.8224411,-117.295238,32.81792831,-117.29539
LTM_CCFRP,SIO,South La Jolla,South La Jolla State Marine Reserve,South La Jolla SMR,LJ12,LJ,MPA,32.81321716,-117.3094464,354,32.81102371,-117.3121868,32.8155365,-117.3120357,32.81541061,-117.3067058,32.81089783,-117.3068572
LTM_CCFRP,SIO,South La Jolla,South La Jolla State Marine Reserve,South La Jolla SMR,LJ13,LJ,MPA,32.81477737,-117.3038042,354,32.81258774,-117.3065448,32.81710052,-117.3063934,32.81697083,-117.3010635,32.81245804,-117.3012152
LTM_CCFRP,SIO,South La Jolla,South La Jolla State Marine Reserve,South La Jolla SMR,LJ14,LJ,MPA,32.81454849,-117.2982899,354,32.81235504,-117.3010309,32.81686783,-117.3008791,32.81674194,-117.2955489,32.81222916,-117.2957009
LTM_CCFRP,SIO,South La Jolla,South La Jolla State Marine Reserve,South La Jolla SMR,LJ15,LJ,MPA,32.80823517,-117.3083068,354,32.80604172,-117.3110473,32.8105545,-117.3108962,32.8104248,-117.3055662,32.80591202,-117.3057176
LTM_CCFRP,SIO,South La Jolla,South La Jolla State Marine Reserve,South La Jolla SMR,LJ16,LJ,MPA,32.80976868,-117.3014541,354,32.80757904,-117.3041944,32.81209183,-117.3040431,32.81196213,-117.2987136,32.80744934,-117.2988651
LTM_CCFRP,SIO,South La Jolla,South La Jolla State Marine Reserve,South La Jolla SMR,LJ17,LJ,MPA,32.80834579,-117.2958283,354,32.80615234,-117.298569,32.81066513,-117.2984171,32.81053925,-117.2930875,32.80602646,-117.2932397
LTM_CCFRP,SIO,South La Jolla,South La Jolla State Marine Reserve,South La Jolla SMR,LJ18,LJ,MPA,32.80508041,-117.3028085,354,32.80289078,-117.3055489,32.80740356,-117.3053976,32.80727386,-117.300068,32.80276108,-117.3002196
LTM_CCFRP,SIO,South La Jolla,South La Jolla State Marine Reserve,South La Jolla SMR,LJ19,LJ,MPA,32.80334854,-117.2959168,354,32.80115891,-117.2986573,32.80567169,-117.2985053,32.80554199,-117.2931761,32.80102921,-117.2933283
LTM_CCFRP,SIO,South La Jolla,South La Jolla State Marine Reserve,South La Jolla SMR,LJ20,LJ,MPA,32.80175018,-117.2902822,354,32.79955673,-117.2930227,32.80406952,-117.2928708,32.80394363,-117.2875415,32.79943085,-117.2876938
LTM_CCFRP,SIO,South La Jolla,South La Jolla State Marine Reserve,South La Jolla SMR,LJMM,LJ,MPA,,,,,,,,,,,
LTM_CCFRP,SIO,South La Jolla,,,LJRR,LJ,REF,,,,,,,,,,,
LTM_CCFRP,Cal Poly,Point Buchon,Point Buchon State Marine Reserve,Point Buchon SMR,PB01,PB,MPA,35.2518959,-120.9105985,354,35.25415039,-120.9133482,35.25415039,-120.9078489,35.24964523,-120.9133482,35.24964523,-120.9078489
LTM_CCFRP,Cal Poly,Point Buchon,Point Buchon State Marine Reserve,Point Buchon SMR,PB02,PB,MPA,35.25190735,-120.904452,354,35.25415802,-120.9072016,35.25415802,-120.9017023,35.24965286,-120.9072016,35.24965286,-120.9017023
LTM_CCFRP,Cal Poly,Point Buchon,Point Buchon State Marine Reserve,Point Buchon SMR,PB03,PB,MPA,35.24622345,-120.907949,354,35.24847794,-120.9106987,35.24847794,-120.9051994,35.24397278,-120.9106987,35.24397278,-120.9051994
LTM_CCFRP,Cal Poly,Point Buchon,Point Buchon State Marine Reserve,Point Buchon SMR,PB04,PB,MPA,35.24694061,-120.901904,354,35.24919128,-120.9046536,35.24919128,-120.8991543,35.24468613,-120.9046536,35.24468613,-120.8991543
LTM_CCFRP,Cal Poly,Point Buchon,Point Buchon State Marine Reserve,Point Buchon SMR,PB05,PB,MPA,35.24198151,-120.9014685,354,35.24423599,-120.9042181,35.24423599,-120.8987188,35.23973083,-120.9042181,35.23973083,-120.8987188
LTM_CCFRP,Cal Poly,Point Buchon,Point Buchon State Marine Reserve,Point Buchon SMR,PB06,PB,MPA,35.23701477,-120.8985521,354,35.23926544,-120.9013018,35.23926544,-120.8958024,35.23476028,-120.9013018,35.23476028,-120.8958024
LTM_CCFRP,Cal Poly,Point Buchon,Point Buchon State Marine Reserve,Point Buchon SMR,PB07,PB,MPA,35.23708725,-120.8924924,354,35.23934174,-120.8952421,35.23934174,-120.8897427,35.23483658,-120.8952421,35.23483658,-120.8897427
LTM_CCFRP,Cal Poly,Point Buchon,Point Buchon State Marine Reserve,Point Buchon SMR,PB08,PB,MPA,35.23209763,-120.8925476,354,35.2343483,-120.8952972,35.2343483,-120.8897979,35.22984314,-120.8952972,35.22984314,-120.8897979
LTM_CCFRP,Cal Poly,Point Buchon,Point Buchon State Marine Reserve,Point Buchon SMR,PB09,PB,MPA,35.22881317,-120.8864934,354,35.23106766,-120.889243,35.23106766,-120.8837437,35.2265625,-120.889243,35.2265625,-120.8837437
LTM_CCFRP,Cal Poly,Point Buchon,Point Buchon State Marine Reserve,Point Buchon SMR,PB10,PB,MPA,35.22429657,-120.8805651,354,35.22654724,-120.8833147,35.22654724,-120.8778154,35.22204208,-120.8833147,35.22204208,-120.8778154
LTM_CCFRP,Cal Poly,Point Buchon,Point Buchon State Marine Reserve,Point Buchon SMR,PB11,PB,MPA,35.21829987,-120.8761027,354,35.22055435,-120.8788523,35.22055435,-120.873353,35.21604919,-120.8788523,35.21604919,-120.873353
LTM_CCFRP,Cal Poly,Point Buchon,,,PB12,PB,REF,35.28722382,-120.8970647,354,35.2894783,-120.8998144,35.2894783,-120.894315,35.28497314,-120.8998144,35.28497314,-120.894315
LTM_CCFRP,Cal Poly,Point Buchon,,,PB13,PB,REF,35.28289413,-120.904566,354,35.28514862,-120.9073157,35.28514862,-120.9018164,35.28064346,-120.9073157,35.28064346,-120.9018164
LTM_CCFRP,Cal Poly,Point Buchon,,,PB14,PB,REF,35.28225708,-120.8985247,354,35.28450775,-120.9012744,35.28450775,-120.8957751,35.28000259,-120.9012744,35.28000259,-120.8957751
LTM_CCFRP,Cal Poly,Point Buchon,,,PB15,PB,REF,35.27785492,-120.9087862,354,35.28010559,-120.9115359,35.28010559,-120.9060366,35.27560043,-120.9115359,35.27560043,-120.9060366
LTM_CCFRP,Cal Poly,Point Buchon,,,PB16,PB,REF,35.27728653,-120.9025742,354,35.2795372,-120.9053239,35.2795372,-120.8998246,35.27503204,-120.9053239,35.27503204,-120.8998246
LTM_CCFRP,Cal Poly,Point Buchon,,,PB17,PB,REF,35.27284241,-120.909463,354,35.27509689,-120.9122126,35.27509689,-120.9067133,35.27059174,-120.9122126,35.27059174,-120.9067133
LTM_CCFRP,Cal Poly,Point Buchon,,,PB18,PB,REF,35.27228928,-120.903379,354,35.27453995,-120.9061287,35.27453995,-120.9006294,35.27003479,-120.9061287,35.27003479,-120.9006294
LTM_CCFRP,Cal Poly,Point Buchon,,,PB19,PB,REF,35.26783752,-120.9141048,354,35.27009201,-120.9168545,35.27009201,-120.9113552,35.26558685,-120.9168545,35.26558685,-120.9113552
LTM_CCFRP,Cal Poly,Point Buchon,,,PB20,PB,REF,35.26726913,-120.9078048,354,35.26951981,-120.9105544,35.26951981,-120.9050551,35.26501465,-120.9105544,35.26501465,-120.9050551
LTM_CCFRP,Cal Poly,Point Buchon,,,PB21,PB,REF,35.2622757,-120.9134087,354,35.26452637,-120.9161584,35.26452637,-120.9106591,35.26002121,-120.9161584,35.26002121,-120.9106591
LTM_CCFRP,Cal Poly,Point Buchon,,,PB22,PB,REF,35.26223373,-120.9070832,354,35.26448441,-120.9098329,35.26448441,-120.9043335,35.25997925,-120.9098329,35.25997925,-120.9043335
LTM_CCFRP,Cal Poly,Point Buchon,Point Buchon State Marine Reserve,Point Buchon SMR,PBMM,PB,MPA,,,,,,,,,,,
LTM_CCFRP,Cal Poly,Point Buchon,,,PBRR,PB,REF,,,,,,,,,,,
LTM_CCFRP,UCSB,Point Conception,Point Conception State Marine Reserve,Point Conception SMR,PC01,PC,MPA,34.44752884,-120.484335,354,34.44971466,-120.4815391,34.4452095,-120.4816945,34.4453392,-120.4871315,34.44984436,-120.4869764
LTM_CCFRP,UCSB,Point Conception,Point Conception State Marine Reserve,Point Conception SMR,PC02,PC,MPA,34.44397736,-120.478159,354,34.4462738,-120.4808255,34.44618607,-120.4753872,34.44168091,-120.4754931,34.44176865,-120.4809311
LTM_CCFRP,UCSB,Point Conception,Point Conception State Marine Reserve,Point Conception SMR,PC03,PC,MPA,34.43583298,-120.460345,354,34.43814087,-120.4629952,34.43803024,-120.4575582,34.43352509,-120.4576947,34.43363571,-120.4631315
LTM_CCFRP,UCSB,Point Conception,Point Conception State Marine Reserve,Point Conception SMR,PC04,PC,MPA,34.36288834,-120.454533,354,34.43859863,-120.4571832,34.43397903,-120.451883,34.43848419,-120.4517462,34.43409348,-120.4573198
LTM_CCFRP,UCSB,Point Conception,Point Conception State Marine Reserve,Point Conception SMR,PC05,PC,MPA,34.4383049,-120.448855,354,34.44061661,-120.451505,34.44050217,-120.4460678,34.43599701,-120.446205,34.43611145,-120.4516418
LTM_CCFRP,UCSB,Point Conception,Point Conception State Marine Reserve,Point Conception SMR,PC06,PC,MPA,34.4397049,-120.44023,354,34.44186783,-120.4374049,34.43736267,-120.4376213,34.43754196,-120.4430556,34.44204712,-120.4428395
LTM_CCFRP,UCSB,Point Conception,Point Conception State Marine Reserve,Point Conception SMR,PC07,PC,MPA,34.43954468,-120.434157,354,34.43735504,-120.4369514,34.4418602,-120.4367999,34.44173431,-120.4313631,34.43722916,-120.4315149
LTM_CCFRP,UCSB,Point Conception,Point Conception State Marine Reserve,Point Conception SMR,PC08,PC,MPA,34.43924713,-120.428229,354,34.43691635,-120.425607,34.43707275,-120.4310423,34.44157791,-120.4308508,34.44141769,-120.4254153
LTM_CCFRP,UCSB,Point Conception,Point Conception State Marine Reserve,Point Conception SMR,PC09,PC,MPA,34.44438171,-120.433848,354,34.44657516,-120.431061,34.44207001,-120.4311973,34.44218445,-120.4366346,34.44668961,-120.4364985
LTM_CCFRP,UCSB,Point Conception,Point Conception State Marine Reserve,Point Conception SMR,PC10,PC,MPA,34.44418335,-120.428181,354,34.44652176,-120.4307907,34.44634247,-120.4253557,34.44202042,-120.4310053,34.44184113,-120.4255706
LTM_CCFRP,UCSB,Point Conception,Point Conception State Marine Reserve,Point Conception SMR,PC11,PC,MPA,34.43890762,-120.422428,354,34.44124222,-120.425047,34.44107819,-120.4196117,34.43657684,-120.4198086,34.43673706,-120.4252436
LTM_CCFRP,UCSB,Point Conception,Point Conception State Marine Reserve,Point Conception SMR,PC12,PC,MPA,34.44373703,-120.422501,354,34.44610214,-120.425079,34.44587326,-120.4196468,34.44137192,-120.4199236,34.4416008,-120.4253554
LTM_CCFRP,UCSB,Point Conception,Point Conception State Marine Reserve,Point Conception SMR,PC13,PC,MPA,34.44320679,-120.465638,354,34.44638062,-120.4659763,34.44348526,-120.4618071,34.44003296,-120.4653002,34.4429245,-120.4694694
LTM_CCFRP,UCSB,Point Conception,,,PC14,PC,REF,34.45898438,-120.482711,354,34.46124649,-120.4854226,34.46123123,-120.4799823,34.45672607,-120.4799996,34.45673752,-120.4854396
LTM_CCFRP,UCSB,Point Conception,,,PC15,PC,REF,34.45379639,-120.494438,354,34.45607376,-120.4971279,34.45602417,-120.4916882,34.45151901,-120.4917489,34.4515686,-120.4971883
LTM_CCFRP,UCSB,Point Conception,,,PC16,PC,REF,34.44202423,-120.413676,354,34.44421768,-120.4108837,34.43971252,-120.4110315,34.43983459,-120.4164682,34.44433975,-120.4163208
LTM_CCFRP,UCSB,Point Conception,,,PC17,PC,REF,34.44219208,-120.407647,354,34.44437408,-120.4048462,34.43986893,-120.4050123,34.44000626,-120.4104485,34.44451141,-120.4102827
LTM_CCFRP,UCSB,Point Conception,,,PC18,PC,REF,34.44154739,-120.401692,354,34.44385529,-120.4043403,34.44374084,-120.3989031,34.43923569,-120.399043,34.43935013,-120.4044799
LTM_CCFRP,UCSB,Point Conception,,,PC19,PC,REF,34.43658829,-120.402908,354,34.43893814,-120.4055083,34.43874359,-120.4000746,34.43424225,-120.400308,34.43443298,-120.4057414
LTM_CCFRP,UCSB,Point Conception,,,PC20,PC,REF,34.43717575,-120.411637,354,34.4393692,-120.408849,34.43486404,-120.4089881,34.43497849,-120.4144248,34.43948364,-120.4142859
LTM_CCFRP,UCSB,Point Conception,,,PC21,PC,REF,34.44176483,-120.395848,354,34.44411469,-120.3984476,34.44392014,-120.3930137,34.43941879,-120.3932482,34.43961334,-120.3986818
LTM_CCFRP,UCSB,Point Conception,,,PC22,PC,REF,34.43576813,-120.39681,354,34.4380455,-120.3995003,34.43799591,-120.3940621,34.43349075,-120.3941198,34.43353653,-120.3995578
LTM_CCFRP,UCSB,Point Conception,,,PC23,PC,REF,34.45272446,-120.486788,354,34.45048141,-120.4895124,34.45498276,-120.4895032,34.45497513,-120.4840633,34.45046616,-120.4840728
LTM_CCFRP,UCSB,Point Conception,Point Conception State Marine Reserve,Point Conception SMR,PCMM,PC,MPA,,,,,,,,,,,
LTM_CCFRP,UCSB,Point Conception,,,PCRR,PC,REF,,,,,,,,,,,
LTM_CCFRP,MLML,Point Lobos,,,PL01,PL,REF,36.58450699,-121.9830833,354,36.58675385,-121.9858499,36.58675385,-121.9803167,36.58226013,-121.9858499,36.58226013,-121.9803167
LTM_CCFRP,MLML,Point Lobos,,,PL02,PL,REF,36.57960892,-121.9831608,354,36.58185577,-121.9859274,36.58185577,-121.9803942,36.57736206,-121.9859274,36.57736206,-121.9803942
LTM_CCFRP,MLML,Point Lobos,,,PL03,PL,REF,36.57417297,-121.9815505,354,36.57641983,-121.9843171,36.57641983,-121.9787839,36.57192612,-121.9843171,36.57192612,-121.9787839
LTM_CCFRP,MLML,Point Lobos,,,PL04,PL,REF,36.56906509,-121.9784583,354,36.57131195,-121.9812249,36.57131195,-121.9756917,36.56681824,-121.9812249,36.56681824,-121.9756917
LTM_CCFRP,MLML,Point Lobos,,,PL05,PL,REF,36.56758881,-121.9724056,354,36.56983566,-121.9751722,36.56983566,-121.9696389,36.56534195,-121.9751722,36.56534195,-121.9696389
LTM_CCFRP,MLML,Point Lobos,Point Lobos State Marine Reserve,Point Lobos SMR,PL06,PL,MPA,36.52507019,-121.9425738,354,36.52732086,-121.9453404,36.52732086,-121.9398072,36.52282333,-121.9453404,36.52282333,-121.9398072
LTM_CCFRP,MLML,Point Lobos,Point Lobos State Marine Reserve,Point Lobos SMR,PL07,PL,MPA,36.52598572,-121.9521542,354,36.52823257,-121.9549208,36.52823257,-121.9493876,36.52373886,-121.9549208,36.52373886,-121.9493876
LTM_CCFRP,MLML,Point Lobos,Point Lobos State Marine Reserve,Point Lobos SMR,PL08,PL,MPA,36.52220535,-121.958254,354,36.52445221,-121.9610206,36.52445221,-121.9554874,36.51995468,-121.9610206,36.51995468,-121.9554874
LTM_CCFRP,MLML,Point Lobos,Point Lobos State Marine Reserve,Point Lobos SMR,PL09,PL,MPA,36.51380539,-121.9545696,354,36.51605225,-121.9573362,36.51605225,-121.951803,36.51155853,-121.9573362,36.51155853,-121.951803
LTM_CCFRP,MLML,Point Lobos,Point Lobos State Marine Reserve,Point Lobos SMR,PL10,PL,MPA,36.50960159,-121.9475056,354,36.51184845,-121.9502722,36.51184845,-121.944739,36.50735474,-121.9502722,36.50735474,-121.944739
LTM_CCFRP,MLML,Point Lobos,Point Lobos State Marine Reserve,Point Lobos SMR,PL11,PL,MPA,36.49071503,-121.9502251,354,36.49296188,-121.9529917,36.49296188,-121.9474585,36.48846817,-121.9529917,36.48846817,-121.9474585
LTM_CCFRP,MLML,Point Lobos,Point Lobos State Marine Reserve,Point Lobos SMR,PL12,PL,MPA,36.48888779,-121.9562111,354,36.49113464,-121.9589777,36.49113464,-121.9534445,36.48664093,-121.9589777,36.48664093,-121.9534445
LTM_CCFRP,MLML,Point Lobos,Point Lobos State Marine Reserve,Point Lobos SMR,PL13,PL,MPA,36.48586273,-121.9504221,354,36.48810959,-121.9531887,36.48810959,-121.9476555,36.48361588,-121.9531887,36.48361588,-121.9476555
LTM_CCFRP,MLML,Point Lobos,,,PL14,PL,REF,36.47606659,-121.9449204,354,36.47831345,-121.947687,36.47831345,-121.9421538,36.47381973,-121.947687,36.47381973,-121.9421538
LTM_CCFRP,MLML,Point Lobos,,,PL15,PL,REF,36.47146988,-121.9417672,354,36.47371674,-121.9445338,36.47371674,-121.9390006,36.46922302,-121.9445338,36.46922302,-121.9390006
LTM_CCFRP,MLML,Point Lobos,,,PL16,PL,REF,36.46688461,-121.9367452,354,36.46913147,-121.9395118,36.46913147,-121.9339786,36.46463776,-121.9395118,36.46463776,-121.9339786
LTM_CCFRP,MLML,Point Lobos,,,PL17,PL,REF,36.46196747,-121.9344,354,36.46421432,-121.9371666,36.46421432,-121.9316334,36.4597168,-121.9371666,36.4597168,-121.9316334
LTM_CCFRP,MLML,Point Lobos,Point Lobos State Marine Reserve,Point Lobos SMR,PLMM,PL,MPA,,,,,,,,,,,
LTM_CCFRP,MLML,Point Lobos,Point Lobos State Marine Reserve,Point Lobos SMR,PLMN,PL,MPA,,,,,,,,,,,
LTM_CCFRP,MLML,Point Lobos,Point Lobos State Marine Reserve,Point Lobos SMR,PLMO,PL,MPA,,,,,,,,,,,
LTM_CCFRP,MLML,Point Lobos,,,PLRR,PL,REF,,,,,,,,,,,
LTM_CCFRP,HSU,Reading Rock,Reading Rock State Marine Reserve,Reading Rock SMR,RR01,RR,MPA,41.33217621,-124.170904,354,41.32991409,-124.173885,41.33442307,-124.1739168,41.33444595,-124.1679497,41.3299408,-124.1679183
LTM_CCFRP,HSU,Reading Rock,Reading Rock State Marine Reserve,Reading Rock SMR,RR02,RR,MPA,41.32736588,-124.177684,354,41.32510376,-124.1806654,41.32961273,-124.1806976,41.32963562,-124.1747309,41.32513046,-124.174699
LTM_CCFRP,HSU,Reading Rock,Reading Rock State Marine Reserve,Reading Rock SMR,RR03,RR,MPA,41.3323288,-124.17772,354,41.3300705,-124.1807014,41.33457565,-124.1807337,41.33460236,-124.1747665,41.33009338,-124.1747347
LTM_CCFRP,HSU,Reading Rock,Reading Rock State Marine Reserve,Reading Rock SMR,RR04,RR,MPA,41.32734299,-124.184363,354,41.32508087,-124.1873435,41.32958984,-124.1873762,41.32961273,-124.1814094,41.32510757,-124.1813771
LTM_CCFRP,HSU,Reading Rock,Reading Rock State Marine Reserve,Reading Rock SMR,RR05,RR,MPA,41.33231735,-124.1844,354,41.33005524,-124.1873809,41.33456421,-124.1874136,41.3345871,-124.1814464,41.33008194,-124.1814141
LTM_CCFRP,HSU,Reading Rock,Reading Rock State Marine Reserve,Reading Rock SMR,RR06,RR,MPA,41.33204269,-124.096412,354,41.33428574,-124.099409,41.33430481,-124.093442,41.32979965,-124.093415,41.32978058,-124.099382
LTM_CCFRP,HSU,Reading Rock,Reading Rock State Marine Reserve,Reading Rock SMR,RR07,RR,MPA,41.32621765,-124.098355,354,41.32846069,-124.101352,41.32847977,-124.095385,41.32397461,-124.095358,41.32395554,-124.101325
LTM_CCFRP,HSU,Reading Rock,Reading Rock State Marine Reserve,Reading Rock SMR,RR08,RR,MPA,41.32109833,-124.098659,354,41.32334137,-124.101656,41.32336044,-124.095689,41.31885529,-124.095662,41.3188324,-124.101628
LTM_CCFRP,HSU,Reading Rock,,,RR10,RR,REF,41.3450737,-124.179143,354,41.34731674,-124.182144,41.34733963,-124.176175,41.34283447,-124.176143,41.34281158,-124.182111
LTM_CCFRP,HSU,Reading Rock,,,RR11,RR,REF,41.33823013,-124.186409,354,41.33596802,-124.1893899,41.34047318,-124.1894228,41.34049988,-124.1834551,41.33599472,-124.1834227
LTM_CCFRP,HSU,Reading Rock,,,RR12,RR,REF,41.34321976,-124.186483,354,41.34095764,-124.1894642,41.34546661,-124.189497,41.3454895,-124.183529,41.34098434,-124.1834964
LTM_CCFRP,HSU,Reading Rock,,,RR13,RR,REF,41.34822464,-124.186554,354,41.34596252,-124.1895359,41.35046768,-124.1895688,41.35049438,-124.1836003,41.34598923,-124.1835679
LTM_CCFRP,HSU,Reading Rock,,,RR14,RR,REF,41.35398102,-124.189995,354,41.3517189,-124.192977,41.35622787,-124.1930102,41.35625076,-124.1870411,41.35174561,-124.1870085
LTM_CCFRP,HSU,Reading Rock,,,RR15,RR,REF,41.33823013,-124.193056,354,41.33596802,-124.1960374,41.34047699,-124.1960707,41.34049988,-124.1901031,41.33599472,-124.1900701
LTM_CCFRP,HSU,Reading Rock,,,RR16,RR,REF,41.34316635,-124.193103,354,41.34090805,-124.1960837,41.34541321,-124.196117,41.34543991,-124.1901489,41.34093094,-124.190116
LTM_CCFRP,HSU,Reading Rock,,,RR17,RR,REF,41.34814453,-124.193238,354,41.34588623,-124.1962196,41.35039139,-124.1962529,41.35041428,-124.1902844,41.34590912,-124.1902515
LTM_CCFRP,HSU,Reading Rock,,,RR21,RR,REF,41.33842087,-124.171809,354,41.34066391,-124.174809,41.3406868,-124.168841,41.33618164,-124.16881,41.33615875,-124.174777
LTM_CCFRP,HSU,Reading Rock,,,RR22,RR,REF,41.33787918,-124.178751,354,41.33561707,-124.1817328,41.34012604,-124.1817652,41.34014893,-124.1757975,41.33564377,-124.1757656
LTM_CCFRP,HSU,Reading Rock,,,RR23,RR,REF,41.34339523,-124.172264,354,41.34563828,-124.175264,41.34566116,-124.169296,41.34115601,-124.169264,41.34113312,-124.175232
LTM_CCFRP,HSU,Reading Rock,,,RR24,RR,REF,41.3428688,-124.094731,354,41.34511185,-124.097729,41.34513092,-124.091761,41.34062576,-124.091734,41.34060669,-124.097702
LTM_CCFRP,HSU,Reading Rock,,,RR25,RR,REF,41.33773422,-124.095433,354,41.33997726,-124.09843,41.34000015,-124.092462,41.33549118,-124.092435,41.33547211,-124.098403
LTM_CCFRP,HSU,Reading Rock,Reading Rock State Marine Reserve,Reading Rock SMR,RRMM,RR,MPA,,,,,,,,,,,
LTM_CCFRP,HSU,Reading Rock,,,RRRR,RR,REF,,,,,,,,,,,
LTM_CCFRP,BML,Stewarts Point,Stewarts Point State Marine Reserve,Stewarts Point SMR,SP01,SP,MPA,38.6517868,-123.4129319,354,38.65273666,-123.4168099,38.65482712,-123.4117195,38.65083694,-123.4090539,38.64874649,-123.4141442
LTM_CCFRP,BML,Stewarts Point,Stewarts Point State Marine Reserve,Stewarts Point SMR,SP02,SP,MPA,38.64430237,-123.4080908,354,38.645298,-123.4119501,38.64733124,-123.4068215,38.64331055,-123.4042315,38.64127731,-123.4093599
LTM_CCFRP,BML,Stewarts Point,Stewarts Point State Marine Reserve,Stewarts Point SMR,SP03,SP,MPA,38.63943481,-123.4049181,354,38.64245987,-123.4036417,38.63843536,-123.4010615,38.63640976,-123.4061944,38.64043808,-123.4087748
LTM_CCFRP,BML,Stewarts Point,Stewarts Point State Marine Reserve,Stewarts Point SMR,SP04,SP,MPA,38.63466263,-123.4015496,354,38.63771439,-123.4003791,38.63374329,-123.3976598,38.63161087,-123.40272,38.63557816,-123.4054395
LTM_CCFRP,BML,Stewarts Point,Stewarts Point State Marine Reserve,Stewarts Point SMR,SP05,SP,MPA,38.62244415,-123.3865796,354,38.62350464,-123.3904106,38.62545013,-123.3852308,38.62138748,-123.3827487,38.61943817,-123.3879283
LTM_CCFRP,BML,Stewarts Point,Stewarts Point State Marine Reserve,Stewarts Point SMR,SP06,SP,MPA,38.61775208,-123.3825241,354,38.61874008,-123.3863847,38.62078094,-123.3812634,38.61676025,-123.3786636,38.61472321,-123.3837847
LTM_CCFRP,BML,Stewarts Point,Stewarts Point State Marine Reserve,Stewarts Point SMR,SP07,SP,MPA,38.61339188,-123.37855,354,38.61436081,-123.3824183,38.61642456,-123.3773138,38.61242294,-123.3746819,38.61035538,-123.3797861
LTM_CCFRP,BML,Stewarts Point,Stewarts Point State Marine Reserve,Stewarts Point SMR,SP08,SP,MPA,38.60049438,-123.3702269,354,38.60056305,-123.3742861,38.60367966,-123.3701371,38.60042191,-123.3661677,38.59730911,-123.3703167
LTM_CCFRP,BML,Stewarts Point,Stewarts Point State Marine Reserve,Stewarts Point SMR,SP09,SP,MPA,38.59719849,-123.3652087,354,38.59725189,-123.3692682,38.60038376,-123.3651424,38.59714508,-123.3611492,38.59401321,-123.3652749
LTM_CCFRP,BML,Stewarts Point,,,SP10,SP,REF,38.55418015,-123.3154931,354,38.55641174,-123.3183903,38.5564537,-123.312652,38.55194855,-123.3125961,38.55190659,-123.318334
LTM_CCFRP,BML,Stewarts Point,,,SP11,SP,REF,38.54563522,-123.3088716,354,38.54572678,-123.312927,38.5488205,-123.3087551,38.54554367,-123.3048161,38.54244995,-123.308988
LTM_CCFRP,BML,Stewarts Point,,,SP12,SP,REF,38.5424614,-123.3032433,354,38.54253387,-123.3072993,38.54564667,-123.3031509,38.54238892,-123.2991874,38.53927612,-123.3033358
LTM_CCFRP,BML,Stewarts Point,,,SP13,SP,REF,38.53875351,-123.299,354,38.53885269,-123.3030511,38.54193497,-123.2989245,38.53865433,-123.2949489,38.53557205,-123.2990755
LTM_CCFRP,BML,Stewarts Point,,,SP14,SP,REF,38.53580856,-123.293191,354,38.53583527,-123.2972438,38.53899384,-123.2932073,38.53578186,-123.2891383,38.53262711,-123.2931747
LTM_CCFRP,BML,Stewarts Point,,,SP15,SP,REF,38.53006744,-123.2839102,354,38.52962875,-123.2879279,38.5332222,-123.2844679,38.53050232,-123.2798924,38.52690887,-123.2833526
LTM_CCFRP,BML,Stewarts Point,,,SP16,SP,REF,38.52303696,-123.2742487,354,38.52344894,-123.2782709,38.52619934,-123.2737268,38.52262878,-123.2702265,38.51987839,-123.2747705
LTM_CCFRP,BML,Stewarts Point,,,SP17,SP,REF,38.51751709,-123.2678833,354,38.51808167,-123.2718745,38.52065277,-123.2671633,38.51695251,-123.2638922,38.51438141,-123.2686033
LTM_CCFRP,BML,Stewarts Point,,,SP18,SP,REF,38.50798035,-123.2566918,354,38.50817108,-123.2607395,38.5111618,-123.2564474,38.50778961,-123.2526442,38.50479889,-123.2569363
LTM_CCFRP,BML,Stewarts Point,,,SP19,SP,REF,38.49584198,-123.2295344,354,38.49603653,-123.2335813,38.49902344,-123.2292887,38.49564743,-123.2254875,38.49266052,-123.22978
LTM_CCFRP,BML,Stewarts Point,,,SP20,SP,REF,38.4837532,-123.216958,354,38.48159409,-123.2199342,38.48606491,-123.2197424,38.48591232,-123.2139816,38.4814415,-123.2141739
LTM_CCFRP,BML,Stewarts Point,Stewarts Point State Marine Reserve,Stewarts Point SMR,SPMM,SP,MPA,,,,,,,,,,,
LTM_CCFRP,BML,Stewarts Point,,,SPRR,SP,REF,,,,,,,,,,,
LTM_CCFRP,SIO,Swamis,,,SW01,SW,REF,33.11252975,-117.3372604,354,33.1103363,-117.3400092,33.11484909,-117.3398578,33.11471939,-117.3345115,33.1102066,-117.3346633
LTM_CCFRP,SIO,Swamis,,,SW02,SW,REF,33.11333084,-117.3312825,354,33.11113739,-117.3340313,33.11565018,-117.3338798,33.11552048,-117.3285336,33.11100769,-117.3286853
LTM_CCFRP,SIO,Swamis,,,SW03,SW,REF,33.09977341,-117.3247739,354,33.09757996,-117.327523,33.10209274,-117.3273717,33.10196304,-117.3220248,33.09745407,-117.3221764
LTM_CCFRP,SIO,Swamis,,,SW04,SW,REF,33.07905579,-117.3207934,354,33.07686234,-117.3235427,33.08137512,-117.3233916,33.08124542,-117.318044,33.07673645,-117.3181954
LTM_CCFRP,SIO,Swamis,,,SW05,SW,REF,33.07428741,-117.3186902,354,33.07209396,-117.3214394,33.07660675,-117.3212883,33.07648087,-117.3159408,33.07196808,-117.3160922
LTM_CCFRP,SIO,Swamis,,,SW06,SW,REF,33.06064606,-117.3130775,354,33.05845261,-117.3158264,33.06296539,-117.315675,33.06283951,-117.3103284,33.05832672,-117.3104801
LTM_CCFRP,SIO,Swamis,Swami's State Marine Conservation Area,Swami's SMCA,SW07,SW,MPA,33.03530502,-117.3027053,354,33.03311539,-117.3054536,33.03762436,-117.3053017,33.03749847,-117.2999568,33.03298569,-117.300109
LTM_CCFRP,SIO,Swamis,Swami's State Marine Conservation Area,Swami's SMCA,SW08,SW,MPA,33.02667999,-117.2940415,354,33.02449036,-117.2967896,33.02899933,-117.2966375,33.02886963,-117.2912933,33.02436066,-117.2914457
LTM_CCFRP,SIO,Swamis,Swami's State Marine Conservation Area,Swami's SMCA,SW09,SW,MPA,33.01883698,-117.2953526,354,33.01664734,-117.2981006,33.02115631,-117.2979485,33.02103043,-117.2926045,33.01651764,-117.292757
LTM_CCFRP,SIO,Swamis,Swami's State Marine Conservation Area,Swami's SMCA,SW10,SW,MPA,33.01719666,-117.2894671,354,33.0150032,-117.292215,33.01951599,-117.2920628,33.01938629,-117.2867192,33.0148735,-117.2868716
LTM_CCFRP,SIO,Swamis,Swami's State Marine Conservation Area,Swami's SMCA,SW11,SW,MPA,33.01254654,-117.2884017,354,33.0103569,-117.2911495,33.01486969,-117.290997,33.01473999,-117.2856537,33.0102272,-117.2858065
LTM_CCFRP,SIO,Swamis,Swami's State Marine Conservation Area,Swami's SMCA,SW12,SW,MPA,33.00769043,-117.295559,354,33.00549698,-117.2983066,33.01000977,-117.2981543,33.00988007,-117.2928113,33.00537109,-117.2929639
LTM_CCFRP,SIO,Swamis,Swami's State Marine Conservation Area,Swami's SMCA,SW13,SW,MPA,33.00755692,-117.2900345,354,33.00536346,-117.2927822,33.00987625,-117.2926296,33.00974655,-117.2872866,33.00523758,-117.2874396
LTM_CCFRP,SIO,Swamis,Swami's State Marine Conservation Area,Swami's SMCA,SW14,SW,MPA,33.00231552,-117.2834118,354,33.00012207,-117.2861594,33.00463486,-117.2860067,33.00450516,-117.2806641,32.99999237,-117.2808171
LTM_CCFRP,SIO,Swamis,,,SW15,SW,REF,32.99765396,-117.2889326,354,32.99546432,-117.29168,32.9999733,-117.2915272,32.99984741,-117.286185,32.99533463,-117.286338
LTM_CCFRP,SIO,Swamis,,,SW16,SW,REF,32.99465561,-117.2835041,354,32.99246597,-117.2862514,32.99697495,-117.2860986,32.99684525,-117.2807566,32.99233627,-117.2809097
LTM_CCFRP,SIO,Swamis,,,SW17,SW,REF,32.99006653,-117.2866892,354,32.98787689,-117.2894363,32.99238586,-117.2892835,32.99225616,-117.2839419,32.98774719,-117.284095
LTM_CCFRP,SIO,Swamis,,,SW18,SW,REF,32.98530579,-117.2851521,354,32.98311615,-117.2878991,32.98762894,-117.2877462,32.98749924,-117.2824049,32.98298645,-117.2825581
LTM_CCFRP,SIO,Swamis,,,SW19,SW,REF,32.95901108,-117.2752663,354,32.95681763,-117.2780134,32.96133041,-117.2778605,32.96120071,-117.2725192,32.95668793,-117.2726724
LTM_CCFRP,SIO,Swamis,Swami's State Marine Conservation Area,Swami's SMCA,SWMM,SW,MPA,,,,,,,,,,,
LTM_CCFRP,SIO,Swamis,,,SWRR,SW,REF,,,,,,,,,,,
LTM_CCFRP,HSU,Trinidad,,,TD01,TD,REF,41.0521698,-124.1678919,354,41.05445099,-124.1649573,41.04994583,-124.1648778,41.0498848,-124.1708263,41.05438995,-124.1709061
LTM_CCFRP,HSU,Trinidad,,,TD02,TD,REF,41.05917358,-124.1696389,354,41.05688858,-124.1725735,41.06139374,-124.1726535,41.06145477,-124.1667041,41.05694962,-124.1666245
LTM_CCFRP,HSU,Trinidad,,,TD03,TD,REF,41.06893921,-124.1746602,354,41.06665421,-124.1775951,41.07115936,-124.1776755,41.0712204,-124.1717251,41.06671524,-124.1716452
LTM_CCFRP,HSU,Trinidad,,,TD04,TD,REF,41.07476807,-124.1776475,354,41.0725174,-124.1806272,41.07702255,-124.180619,41.07701492,-124.1746676,41.07251358,-124.1746762
LTM_CCFRP,HSU,Trinidad,,,TD05,TD,REF,41.08602524,-124.1712224,354,41.08831024,-124.1682865,41.08380508,-124.1682067,41.08374405,-124.1741582,41.08824921,-124.1742384
LTM_CCFRP,HSU,Trinidad,,,TD06,TD,REF,41.10681534,-124.173057,354,41.10909653,-124.1701202,41.10459518,-124.1700402,41.10453415,-124.1759936,41.10903549,-124.176074
LTM_CCFRP,HSU,Trinidad,,,TD07,TD,REF,41.1146431,-124.1730546,354,41.11692429,-124.1701174,41.11242294,-124.1700374,41.11236191,-124.1759915,41.11686325,-124.1760719
LTM_CCFRP,HSU,Trinidad,,,TD08,TD,REF,41.12117767,-124.1719925,354,41.11895752,-124.1689751,41.11889648,-124.1749298,41.12340164,-124.1750101,41.12346268,-124.169055
LTM_CCFRP,HSU,Trinidad,,,TD09,TD,REF,41.12119293,-124.1798728,354,41.12347412,-124.1769356,41.11897278,-124.1768551,41.11891174,-124.1828097,41.12341309,-124.1828906
LTM_CCFRP,HSU,Trinidad,,,TD10,TD,REF,41.13090134,-124.1769575,354,41.13318253,-124.1740198,41.12867737,-124.1739395,41.12861633,-124.1798951,41.13312149,-124.1799757
LTM_CCFRP,HSU,Trinidad,,,TD11,TD,REF,41.1385498,-124.1701579,354,41.13632584,-124.1671398,41.1362648,-124.173096,41.14076996,-124.1731763,41.14083099,-124.1672196
LTM_CCFRP,HSU,Ten Mile,,,TM01,TM,REF,39.64508057,-123.7983742,354,39.64732361,-123.8013012,39.64735031,-123.7954686,39.64284897,-123.7954688,39.64279556,-123.8012459
LTM_CCFRP,HSU,Ten Mile,,,TM02,TM,REF,39.6523056,-123.7962426,354,39.65454483,-123.7991699,39.65457153,-123.7933366,39.65007401,-123.793337,39.65001678,-123.7991147
LTM_CCFRP,HSU,Ten Mile,,,TM03,TM,REF,39.6529808,-123.8025447,354,39.65522385,-123.8054722,39.65525055,-123.7996389,39.65074921,-123.7996389,39.6506958,-123.8054166
LTM_CCFRP,HSU,Ten Mile,,,TM04,TM,REF,39.6581955,-123.7979422,354,39.66043472,-123.8008698,39.66046143,-123.795036,39.6559639,-123.7950363,39.65590668,-123.8008145
LTM_CCFRP,HSU,Ten Mile,,,TM05,TM,REF,39.66334534,-123.8021983,354,39.66558456,-123.8051262,39.66561508,-123.799292,39.66111374,-123.799292,39.66106033,-123.8050706
LTM_CCFRP,HSU,Ten Mile,,,TM06,TM,REF,39.66820526,-123.8031289,354,39.67044449,-123.806057,39.67047501,-123.8002225,39.66597366,-123.8002224,39.66591644,-123.8060014
LTM_CCFRP,HSU,Ten Mile,,,TM07,TM,REF,39.67632294,-123.8020569,354,39.67856216,-123.8049853,39.67858887,-123.7991501,39.67409134,-123.7991501,39.67403412,-123.8049297
LTM_CCFRP,HSU,Ten Mile,,,TM08,TM,REF,39.67221451,-123.8098794,354,39.67445374,-123.812808,39.67448044,-123.806973,39.6699791,-123.8069726,39.66992569,-123.8127518
LTM_CCFRP,HSU,Ten Mile,,,TM09,TM,REF,39.67998123,-123.8086358,354,39.68219376,-123.8116388,39.68225098,-123.8055833,39.67772293,-123.8057777,39.67769623,-123.8115555
LTM_CCFRP,HSU,Ten Mile,,,TM10,TM,REF,39.68893814,-123.8146081,354,39.69116592,-123.8175555,39.69122314,-123.8117222,39.6866951,-123.8116667,39.6866684,-123.8175
LTM_CCFRP,HSU,Ten Mile,,,TM11,TM,REF,39.68476105,-123.8083417,354,39.68697357,-123.8113449,39.68702698,-123.805289,39.68249893,-123.8054834,39.68247223,-123.8112616
LTM_CCFRP,HSU,Ten Mile,,,TM12,TM,REF,39.69412231,-123.8141442,354,39.6963501,-123.8170918,39.69640732,-123.8112581,39.69187927,-123.8112026,39.69185257,-123.8170363
LTM_CCFRP,HSU,Ten Mile,,,TM13,TM,REF,39.69906616,-123.8159519,354,39.70129395,-123.8188997,39.70134735,-123.8130656,39.69682312,-123.81301,39.6967926,-123.8188441
LTM_CCFRP,HSU,Ten Mile,,,TM14,TM,REF,39.62978363,-123.7958678,354,39.63202286,-123.7987941,39.63204956,-123.7929628,39.62754822,-123.7929632,39.62749481,-123.798739
LTM_CCFRP,HSU,Ten Mile,,,TM15,TM,REF,39.65906906,-123.8085019,354,39.66130829,-123.8114299,39.66133499,-123.8055961,39.65683746,-123.8055957,39.65678024,-123.8113739
LTM_CCFRP,HSU,Ten Mile,,,TM16,TM,REF,39.65901947,-123.8153791,354,39.6612587,-123.8183073,39.66128922,-123.8124735,39.65678787,-123.8124726,39.65673065,-123.8182508
LTM_CCFRP,HSU,Ten Mile,,,TM17,TM,REF,39.66302872,-123.8221294,354,39.66526794,-123.825058,39.66529465,-123.8192239,39.6607933,-123.8192226,39.6607399,-123.8250011
LTM_CCFRP,HSU,Ten Mile,,,TM18,TM,REF,39.66819,-123.8245224,354,39.67042923,-123.8274512,39.67045975,-123.8216167,39.6659584,-123.8216152,39.66590118,-123.8273941
LTM_CCFRP,HSU,Ten Mile,,,TM19,TM,REF,39.67339706,-123.8210864,354,39.67563629,-123.8240153,39.67566299,-123.8181803,39.67116547,-123.8181791,39.67110825,-123.8239585
LTM_CCFRP,HSU,Ten Mile,,,TM20,TM,REF,39.66801834,-123.8169422,354,39.67025757,-123.8198708,39.67028809,-123.8140363,39.66578674,-123.8140353,39.66572952,-123.8198142
LTM_CCFRP,HSU,Ten Mile,,,TM21,TM,REF,39.66446686,-123.8096141,354,39.66670609,-123.8125423,39.66673279,-123.806708,39.66223526,-123.8067076,39.66217804,-123.8124862
LTM_CCFRP,HSU,Ten Mile,,,TM22,TM,REF,39.68709183,-123.8210004,354,39.68931961,-123.8239479,39.68937683,-123.8181148,39.68484879,-123.8180589,39.68481827,-123.823892
LTM_CCFRP,HSU,Ten Mile,,,TM23,TM,REF,39.65302658,-123.8092475,354,39.65526581,-123.8121752,39.65529251,-123.8063419,39.65079498,-123.8063415,39.65073776,-123.8121192
LTM_CCFRP,HSU,Ten Mile,,,TM24,TM,REF,39.63946533,-123.8023789,354,39.64169312,-123.8053056,39.64175034,-123.7995,39.63722229,-123.7994444,39.63719559,-123.8052777
LTM_CCFRP,HSU,Ten Mile,Ten Mile State Marine Reserve,Ten Mile SMR,TM25,TM,MPA,39.59563828,-123.8206842,354,39.59785843,-123.8236293,39.59791565,-123.8177959,39.59341431,-123.8177391,39.59335709,-123.8235726
LTM_CCFRP,HSU,Ten Mile,Ten Mile State Marine Reserve,Ten Mile SMR,TM26,TM,MPA,39.5952301,-123.8142157,354,39.59745407,-123.8171605,39.59751129,-123.8113272,39.59300995,-123.8112708,39.59295273,-123.8171042
LTM_CCFRP,HSU,Ten Mile,Ten Mile State Marine Reserve,Ten Mile SMR,TM27,TM,MPA,39.59437561,-123.8079167,354,39.59659576,-123.8108613,39.59665298,-123.805028,39.59215164,-123.804972,39.59209824,-123.8108054
LTM_CCFRP,HSU,Ten Mile,Ten Mile State Marine Reserve,Ten Mile SMR,TM28,TM,MPA,39.59441757,-123.8018611,354,39.59663773,-123.8048055,39.59669495,-123.7989722,39.5921936,-123.7989166,39.5921402,-123.80475
LTM_CCFRP,HSU,Ten Mile,Ten Mile State Marine Reserve,Ten Mile SMR,TM29,TM,MPA,39.58540344,-123.80175,354,39.58763885,-123.8046944,39.58766556,-123.7988611,39.58316803,-123.7988056,39.58313751,-123.8046389
LTM_CCFRP,HSU,Ten Mile,Ten Mile State Marine Reserve,Ten Mile SMR,TM30,TM,MPA,39.58413315,-123.8091879,354,39.58637238,-123.8121325,39.58639908,-123.8062993,39.58189774,-123.8062433,39.58187103,-123.8120765
LTM_CCFRP,HSU,Ten Mile,Ten Mile State Marine Reserve,Ten Mile SMR,TM31,TM,MPA,39.59555435,-123.7937208,354,39.59778595,-123.7966686,39.59783936,-123.7908348,39.59331131,-123.790779,39.59328461,-123.7966129
LTM_CCFRP,HSU,Ten Mile,Ten Mile State Marine Reserve,Ten Mile SMR,TM32,TM,MPA,39.58999252,-123.7901637,354,39.59222031,-123.7931111,39.59227753,-123.7872778,39.58774948,-123.7872222,39.58772278,-123.7930556
LTM_CCFRP,HSU,Ten Mile,Ten Mile State Marine Reserve,Ten Mile SMR,TM33,TM,MPA,39.58388138,-123.7935861,354,39.58612061,-123.7965104,39.58614731,-123.7907042,39.58164597,-123.790648,39.58161926,-123.796482
LTM_CCFRP,HSU,Ten Mile,Ten Mile State Marine Reserve,Ten Mile SMR,TM34,TM,MPA,39.58135605,-123.7873859,354,39.58359528,-123.7903099,39.58362198,-123.7845039,39.57912064,-123.7844481,39.57909393,-123.7902819
LTM_CCFRP,HSU,Ten Mile,Ten Mile State Marine Reserve,Ten Mile SMR,TM35,TM,MPA,39.57651138,-123.7841874,354,39.57875061,-123.7871111,39.57877731,-123.7813055,39.57427597,-123.7812499,39.57424927,-123.7870833
LTM_CCFRP,HSU,Ten Mile,Ten Mile State Marine Reserve,Ten Mile SMR,TMMM,TM,MPA,,,,,,,,,,,
LTM_CCFRP,HSU,Ten Mile,,,TMRR,TM,REF,,,,,,,,,,,
